school_name,url_address,address,postal_code,telephone_no,fax_no,email_address,dgp_code,zone_code,type_code,nature_code,session_code,mainlevel_code,sap_ind,autonomous_ind,gifted_ind,ip_ind,mothertongue1_code,mothertongue2_code,mothertongue3_code
ADMIRALTY PRIMARY SCHOOL,https://admiraltypri.moe.edu.sg/,11   WOODLANDS CIRCLE,738907,63620598,63627512,ADMIRALTY_PS@MOE.EDU.SG,WOODLANDS,NORTH,GOVERNMENT SCHOOL,CO-ED SCHOOL,FULL DAY,PRIMARY,No,No,No,No,Chinese,Malay,Tamil
ADMIRALTY SECONDARY SCHOOL,http://www.admiraltysec.moe.edu.sg,31   WOODLANDS CRESCENT,737916,63651733,63652774,Admiralty_SS@moe.edu.sg,WOODLANDS,NORTH,GOVERNMENT SCHOOL,CO-ED SCHOOL,SINGLE SESSION,SECONDARY,No,No,No,No,Chinese,Malay,Tamil
AHMAD IBRAHIM PRIMARY SCHOOL,http://www.ahmadibrahimpri.moe.edu.sg,10   YISHUN STREET 11,768643,67592906,67592927,aips@moe.edu.sg,YISHUN,NORTH,GOVERNMENT SCHOOL,CO-ED SCHOOL,SINGLE SESSION,PRIMARY,No,No,No,No,Chinese,Malay,Tamil
AHMAD IBRAHIM SECONDARY SCHOOL,http://www.ahmadibrahimsec.moe.edu.sg,751  YISHUN AVENUE 7,768928,67585384,67557778,aiss@moe.edu.sg,YISHUN,NORTH,GOVERNMENT SCHOOL,CO-ED SCHOOL,SINGLE SESSION,SECONDARY,No,No,No,No,Chinese,Malay,Tamil
AI TONG SCHOOL,http://www.aitong.moe.edu.sg,100  Bright Hill Drive,579646,64547672,64532726,AITONG_SCH@MOE.EDU.SG,BISHAN,SOUTH,GOVERNMENT-AIDED SCH,CO-ED SCHOOL,SINGLE SESSION,PRIMARY,Yes,No,No,No,Chinese,na,na
ALEXANDRA PRIMARY SCHOOL,http://alexandrapri.moe.edu.sg,2A   Prince Charles Crescent,159016,62485400,62485409,alexandra_ps@moe.edu.sg,BUKIT MERAH,SOUTH,GOVERNMENT SCHOOL,CO-ED SCHOOL,SINGLE SESSION,PRIMARY,No,No,No,No,Chinese,Malay,Tamil
ANCHOR GREEN PRIMARY SCHOOL,http://www.anchorgreenpri.moe.edu.sg,31   Anchorvale Drive,544969,68861356,63159825,anchorgreen_ps@moe.edu.sg,SENG KANG,NORTH,GOVERNMENT SCHOOL,CO-ED SCHOOL,SINGLE SESSION,PRIMARY,No,No,No,No,Chinese,Malay,Tamil
ANDERSON PRIMARY SCHOOL,http://www.andersonpri.moe.edu.sg,19   ANG MO KIO AVE 9,569785,64560340,65522310,anderson_ps@moe.edu.sg,ANG MO KIO,NORTH,GOVERNMENT SCHOOL,CO-ED SCHOOL,SINGLE SESSION,PRIMARY,No,No,No,No,Chinese,Malay,Tamil
ANDERSON SECONDARY SCHOOL,http://www.andersonsec.moe.edu.sg,10   ANG MO KIO STREET 53,569206,64598303,64586104,anderson_ss@moe.edu.sg,ANG MO KIO,NORTH,GOVERNMENT SCHOOL,CO-ED SCHOOL,SINGLE SESSION,SECONDARY,No,Yes,No,No,Chinese,Malay,Tamil
ANDERSON SERANGOON JUNIOR COLLEGE,www.asrjc.moe.edu.sg,4500 ANG MO KIO AVENUE 6,569843,64596822,64598734,asrjc@moe.edu.sg,ANG MO KIO,NORTH,GOVERNMENT SCHOOL,CO-ED SCHOOL,FULL DAY,JUNIOR COLLEGE,No,No,No,No,Chinese,Malay,Tamil
ANG MO KIO PRIMARY SCHOOL,http://www.angmokiopri.moe.edu.sg,20   ANG MO KIO AVENUE 3,569920,64520794,64588121,AMKPS@MOE.EDU.SG,ANG MO KIO,SOUTH,GOVERNMENT SCHOOL,CO-ED SCHOOL,SINGLE SESSION,PRIMARY,No,No,No,No,Chinese,Malay,Tamil
ANG MO KIO SECONDARY SCHOOL,http://www.angmokiosec.moe.edu.sg,6    ANG MO KIO STREET 22,569362,64548605,64582425,AMKSS@MOE.EDU.SG,ANG MO KIO,SOUTH,GOVERNMENT SCHOOL,CO-ED SCHOOL,SINGLE SESSION,SECONDARY,No,No,No,No,Chinese,Malay,Tamil
ANGLICAN HIGH SCHOOL,http://www.anglicanhigh.moe.edu.sg,600  UPPER CHANGI ROAD,487012,62414866,64414690,AHS@MOE.EDU.SG,BEDOK,EAST,GOVERNMENT-AIDED SCH,CO-ED SCHOOL,SINGLE SESSION,SECONDARY,Yes,Yes,No,No,Chinese,na,na
ANGLO-CHINESE JUNIOR COLLEGE,http://www.acjc.edu.sg,25   DOVER CLOSE EAST,139745,67750511,67775479,acjc@acjc.edu.sg,QUEENSTOWN,WEST,GOVERNMENT-AIDED SCH,CO-ED SCHOOL,FULL DAY,JUNIOR COLLEGE,No,No,No,No,na,na,na
ANGLO-CHINESE SCHOOL (BARKER ROAD),http://www.acsbr.moe.edu.sg,60   BARKER ROAD,309919,62561633,62561366,acsbr@moe.edu.sg,NOVENA,SOUTH,GOVERNMENT-AIDED SCH,BOYS' SCHOOL,SINGLE SESSION,SECONDARY,No,No,No,No,Chinese,Malay,Tamil
ANGLO-CHINESE SCHOOL (INDEPENDENT),http://www.acsindep.moe.edu.sg,121  DOVER ROAD,139650,67731633,67731433,ACIS@MOE.EDU.SG,QUEENSTOWN,SOUTH,INDEPENDENT SCHOOL,CO-ED SCHOOL,SINGLE SESSION,MIXED LEVELS,No,No,Yes,Yes,Chinese,Malay,Tamil
ANGLO-CHINESE SCHOOL (JUNIOR),www.acsj.moe.edu.sg,16   WINSTEDT ROAD,227988,67337911,67346518,acjs@moe.edu.sg,CENTRAL,SOUTH,GOVERNMENT-AIDED SCH,BOYS' SCHOOL,SINGLE SESSION,PRIMARY,No,No,No,No,Chinese,Malay,Tamil
ANGLO-CHINESE SCHOOL (PRIMARY),http://www.acspri.moe.edu.sg/,50   BARKER ROAD,309918,62501633,63531366,acps@moe.edu.sg,NOVENA,SOUTH,GOVERNMENT-AIDED SCH,BOYS' SCHOOL,SINGLE SESSION,PRIMARY,No,No,Yes,No,Chinese,Malay,Tamil
ANGSANA PRIMARY SCHOOL,www.angsanapri.moe.edu.sg,3    Tampines Street 22,529366,67830427,67845293,angsana_pri@moe.edu.sg,TAMPINES,EAST,GOVERNMENT SCHOOL,CO-ED SCHOOL,SINGLE SESSION,PRIMARY,No,No,No,No,Chinese,Malay,Tamil
ASSUMPTION ENGLISH SCHOOL,http://www.assumptionenglish.moe.edu.sg,622  UPPER BUKIT TIMAH ROAD,678117,65729100,67636560,AES@MOE.EDU.SG,BUKIT PANJANG,WEST,GOVERNMENT-AIDED SCH,CO-ED SCHOOL,SINGLE SESSION,SECONDARY,No,No,No,No,Chinese,Malay,Tamil
ASSUMPTION PATHWAY SCHOOL,http://www.aps.edu.sg,30   Cashew Road,679697,62793000,67622857,aps@schools.gov.sg,BUKIT PANJANG,WEST,SPECIALISED SCHOOL,CO-ED SCHOOL,SINGLE SESSION,SECONDARY,No,No,No,No,Chinese,Malay,Tamil
BARTLEY SECONDARY SCHOOL,http://www.bartleysec.moe.edu.sg,10   JALAN BUNGA RAMPAI,538403,62889013,62805595,bartley_ss@moe.edu.sg,TOA PAYOH,SOUTH,GOVERNMENT SCHOOL,CO-ED SCHOOL,SINGLE SESSION,SECONDARY,No,No,No,No,Chinese,Malay,Tamil
BEACON PRIMARY SCHOOL,https://beaconpri.moe.edu.sg/,36   Bukit Panjang Ring Road,679944,67697255,67697244,beaconprisch@moe.edu.sg,BUKIT PANJANG,WEST,GOVERNMENT SCHOOL,CO-ED SCHOOL,SINGLE SESSION,PRIMARY,No,No,No,No,Chinese,Malay,Tamil
BEATTY SECONDARY SCHOOL,http://www.beattysec.moe.edu.sg,1    TOA PAYOH NORTH,318990,62569108,62542284,BEATTY_SS@MOE.EDU.SG,TOA PAYOH,SOUTH,GOVERNMENT SCHOOL,CO-ED SCHOOL,SINGLE SESSION,SECONDARY,No,No,No,No,Chinese,Malay,Tamil
BEDOK GREEN PRIMARY SCHOOL,http://www.bedokgreenpri.moe.edu.sg,1    BEDOK SOUTH AVE 2,469317,64425416,64491491,bgps@moe.edu.sg,BEDOK,EAST,GOVERNMENT SCHOOL,CO-ED SCHOOL,SINGLE SESSION,PRIMARY,No,No,No,No,Chinese,Malay,Tamil
BEDOK GREEN SECONDARY SCHOOL,http://www.bedokgreensec.moe.edu.sg,360  BEDOK NORTH AVE 3,469722,64463301,64465969,BGSS@MOE.EDU.SG,BEDOK,EAST,GOVERNMENT SCHOOL,CO-ED SCHOOL,SINGLE SESSION,SECONDARY,No,No,No,No,Chinese,Malay,Tamil
BEDOK SOUTH SECONDARY SCHOOL,http://www.bedoksouthsec.moe.edu.sg,1    JALAN LANGGAR BEDOK,468585,64414479,64491314,bsss@moe.edu.sg,BEDOK,EAST,GOVERNMENT SCHOOL,CO-ED SCHOOL,SINGLE SESSION,SECONDARY,No,No,No,No,Chinese,Malay,Tamil
BEDOK VIEW SECONDARY SCHOOL,http://www.bedokviewsec.moe.edu.sg,6    BEDOK SOUTH AVENUE 3,469293,64430563,64494286,bedokview_ss@moe.edu.sg,BEDOK,EAST,GOVERNMENT SCHOOL,CO-ED SCHOOL,SINGLE SESSION,SECONDARY,No,No,No,No,Chinese,Malay,Tamil
BENDEMEER PRIMARY SCHOOL,http://www.bendemeerpri.moe.edu.sg/,91   BENDEMEER ROAD,339948,62982911,62995735,BENDEMEER_PS@MOE.EDU.SG,KALLANG,SOUTH,GOVERNMENT SCHOOL,CO-ED SCHOOL,SINGLE SESSION,PRIMARY,No,No,No,No,Chinese,Malay,Tamil
BENDEMEER SECONDARY SCHOOL,http://www.bendemeersec.moe.edu.sg,1    ST WILFRED ROAD,327919,62927616,62932594,BENDEMEER_SS@MOE.EDU.SG,KALLANG,SOUTH,GOVERNMENT SCHOOL,CO-ED SCHOOL,SINGLE SESSION,SECONDARY,No,No,No,No,Chinese,Malay,Tamil
BLANGAH RISE PRIMARY SCHOOL,http://www.blangahrisepri.moe.edu.sg/,91   TELOK BLANGAH HEIGHTS,109100,62717387,62763037,BRPS@MOE.EDU.SG,BUKIT MERAH,SOUTH,GOVERNMENT SCHOOL,CO-ED SCHOOL,SINGLE SESSION,PRIMARY,No,No,No,No,Chinese,Malay,Tamil
BOON LAY GARDEN PRIMARY SCHOOL,www.boonlaygardenpri.moe.edu.sg,20   BOON LAY DRIVE,649930,63160998,63160209,BLGPS@MOE.EDU.SG,JURONG WEST,WEST,GOVERNMENT SCHOOL,CO-ED SCHOOL,SINGLE SESSION,PRIMARY,No,No,No,No,Chinese,Malay,Tamil
BOON LAY SECONDARY SCHOOL,https://www.boonlaysec.moe.edu.sg,11   JURONG WEST STREET 65,648354,67940161,67941324,BLSS@MOE.EDU.SG,JURONG WEST,WEST,GOVERNMENT SCHOOL,CO-ED SCHOOL,SINGLE SESSION,SECONDARY,No,No,No,No,Chinese,Malay,Tamil
BOWEN SECONDARY SCHOOL,http://www.bowensec.moe.edu.sg,2    LORONG NAPIRI,547529,63859466,63856559,BOWEN_SS@MOE.EDU.SG,HOUGANG,NORTH,GOVERNMENT SCHOOL,CO-ED SCHOOL,SINGLE SESSION,SECONDARY,No,No,No,No,Chinese,Malay,Tamil
BROADRICK SECONDARY SCHOOL,http://www.broadricksec.moe.edu.sg,61   DAKOTA CRESCENT,399935,63445025,64471427,BROADRICK_SS@MOE.EDU.SG,GEYLANG,EAST,GOVERNMENT SCHOOL,CO-ED SCHOOL,SINGLE SESSION,SECONDARY,No,No,No,No,Chinese,Malay,Tamil
BUKIT BATOK SECONDARY SCHOOL,http://www.bukitbatoksec.moe.edu.sg,50   BUKIT BATOK WEST AVE 8,658962,65663121,65607006,bbss@moe.edu.sg,BUKIT BATOK,WEST,GOVERNMENT SCHOOL,CO-ED SCHOOL,SINGLE SESSION,SECONDARY,No,No,No,No,Chinese,Malay,Tamil
BUKIT MERAH SECONDARY SCHOOL,http://www.bukitmerahsec.moe.edu.sg,10   LENGKOK BAHRU,159050,64748934,64744122,bmss@moe.edu.sg,BUKIT MERAH,SOUTH,GOVERNMENT SCHOOL,CO-ED SCHOOL,SINGLE SESSION,SECONDARY,No,No,No,No,Chinese,Malay,Tamil
BUKIT PANJANG GOVT. HIGH SCHOOL,http://www.bpghs.moe.edu.sg,7    CHOA CHU KANG AVE 4,689809,67691031,67626576,BPGHS@MOE.EDU.SG,CHOA CHU KANG,WEST,GOVERNMENT SCHOOL,CO-ED SCHOOL,SINGLE SESSION,SECONDARY,No,Yes,No,No,Chinese,Malay,Tamil
BUKIT PANJANG PRIMARY SCHOOL,http://www.bukitpanjangpri.moe.edu.sg,109  CASHEW ROAD,679676,67691912,67637462,BPPS@MOE.EDU.SG,BUKIT PANJANG,WEST,GOVERNMENT SCHOOL,CO-ED SCHOOL,SINGLE SESSION,PRIMARY,No,No,No,No,Chinese,Malay,Tamil
BUKIT TIMAH PRIMARY SCHOOL,http://www.bukittimahpri.moe.edu.sg,111  Lorong Kismis,598112,64662863,64692179,bukittimahps@moe.edu.sg,BUKIT TIMAH,WEST,GOVERNMENT SCHOOL,CO-ED SCHOOL,SINGLE SESSION,PRIMARY,No,No,No,No,Chinese,Malay,Tamil
BUKIT VIEW PRIMARY SCHOOL,http://www.bukitviewpri.moe.edu.sg,18   BUKIT BATOK STREET 21,659634,65661980,65635015,bukitview_ps@moe.edu.sg,BUKIT BATOK,WEST,GOVERNMENT SCHOOL,CO-ED SCHOOL,SINGLE SESSION,PRIMARY,No,No,No,No,Chinese,Malay,Tamil
BUKIT VIEW SECONDARY SCHOOL,https://www.bukitviewsec.moe.edu.sg,16   BUKIT BATOK STREET 21,659633,65661990,65630945,BUKITVIEW_SS@MOE.EDU.SG,BUKIT BATOK,WEST,GOVERNMENT SCHOOL,CO-ED SCHOOL,SINGLE SESSION,SECONDARY,No,No,No,No,Chinese,Malay,Tamil
CANBERRA PRIMARY SCHOOL,http://www.canberrapri.moe.edu.sg,21   ADMIRALTY DRIVE,757714,67597433,67587312,CANBERRA_PS@MOE.EDU.SG,SEMBAWANG,NORTH,GOVERNMENT SCHOOL,CO-ED SCHOOL,SINGLE SESSION,PRIMARY,No,No,No,No,Chinese,Malay,Tamil
CANBERRA SECONDARY SCHOOL,https://canberrasec.moe.edu.sg,51   SEMBAWANG DRIVE,757699,67585070,67583110,CANBERRA_SS@MOE.EDU.SG,SEMBAWANG,NORTH,GOVERNMENT SCHOOL,CO-ED SCHOOL,SINGLE SESSION,SECONDARY,No,No,No,No,Chinese,Malay,Tamil
CANOSSA CATHOLIC PRIMARY SCHOOL,https://canossacatholicpri.moe.edu.sg/,1    Sallim Road,387621,68441418,68441417,ccps@moe.edu.sg,GEYLANG,EAST,GOVERNMENT-AIDED SCH,CO-ED SCHOOL,SINGLE SESSION,PRIMARY,No,No,No,No,Chinese,Malay,Tamil
CANTONMENT PRIMARY SCHOOL,http://www.cantonmentpri.moe.edu.sg,1    Cantonment Close,88256,65119555,65119556,cantonment_ps@moe.edu.sg,BUKIT MERAH,SOUTH,GOVERNMENT SCHOOL,CO-ED SCHOOL,SINGLE SESSION,PRIMARY,No,No,No,No,Chinese,Malay,Tamil
CASUARINA PRIMARY SCHOOL,http://www.casuarinapri.moe.edu.sg/,30   PASIR RIS ST 41,518935,65837132,65836227,CASUARINA_PS@MOE.EDU.SG,PASIR RIS,EAST,GOVERNMENT SCHOOL,CO-ED SCHOOL,SINGLE SESSION,PRIMARY,No,No,No,No,Chinese,Malay,Tamil
CATHOLIC HIGH SCHOOL,http://www.catholichigh.moe.edu.sg,9    BISHAN STREET 22,579767,64582177 (Secondary),64561322 (Secondary),chs@moe.edu.sg,BISHAN,NORTH,GOVERNMENT-AIDED SCH,BOYS' SCHOOL,SINGLE SESSION,MIXED LEVELS,Yes,Yes,Yes,Yes,Chinese,na,na
CATHOLIC JUNIOR COLLEGE,https://cjc.moe.edu.sg/,129  WHITLEY ROAD,297822,62524083,62537267,catholic_jc@moe.edu.sg,NOVENA,SOUTH,GOVERNMENT-AIDED SCH,CO-ED SCHOOL,FULL DAY,JUNIOR COLLEGE,No,No,No,No,na,na,na
CEDAR GIRLS' SECONDARY SCHOOL,http://www.cedargirlssec.moe.edu.sg,1    CEDAR AVENUE,349692,62884909,62820244,cedargirlss@moe.edu.sg,TOA PAYOH,EAST,GOVERNMENT SCHOOL,GIRLS' SCHOOL,SINGLE SESSION,SECONDARY,No,Yes,No,Yes,Chinese,Malay,Tamil
CEDAR PRIMARY SCHOOL,Http://www.cedarpri.moe.edu.sg,15   CEDAR AVENUE,349700,62885633,62830113,CEDAR_PS@MOE.EDU.SG,TOA PAYOH,SOUTH,GOVERNMENT SCHOOL,CO-ED SCHOOL,SINGLE SESSION,PRIMARY,No,No,No,No,Chinese,Malay,Tamil
CHANGKAT CHANGI SECONDARY SCHOOL,http://www.changkatchangisec.moe.edu.sg,23   SIMEI ST 3,529894,67859790,67868481,CHANGKATCHGI@MOE.EDU.SG,TAMPINES,EAST,GOVERNMENT SCHOOL,CO-ED SCHOOL,SINGLE SESSION,SECONDARY,No,No,No,No,Chinese,Malay,Tamil
CHANGKAT PRIMARY SCHOOL,http://www.changkatpri.moe.edu.sg/,11   SIMEI ST 3,529896,67830923,67844740,CHANGKAT_PS@MOE.EDU.SG,TAMPINES,EAST,GOVERNMENT SCHOOL,CO-ED SCHOOL,SINGLE SESSION,PRIMARY,No,No,No,No,Chinese,Malay,Tamil
CHIJ (KATONG) PRIMARY,http://chijkcp.moe.edu.sg/,17   MARTIA ROAD,424821,63443072,63459007,CHIJKTPS@moe.edu.sg,BEDOK,EAST,GOVERNMENT-AIDED SCH,GIRLS' SCHOOL,SINGLE SESSION,PRIMARY,No,No,No,No,Chinese,Malay,Tamil
CHIJ (KELLOCK),http://www.chijkellock.moe.edu.sg/,1    Bukit Teresa Road,99757,62730096,62731710,CHIJKS@MOE.EDU.SG,BUKIT MERAH,SOUTH,GOVERNMENT-AIDED SCH,GIRLS' SCHOOL,SINGLE SESSION,PRIMARY,No,No,No,No,Chinese,Malay,Tamil
CHIJ KATONG CONVENT,http://www.chijkatongconvent.moe.edu.sg,346  MARINE TERRACE,449150,64486433,64494405,chijktcs@moe.edu.sg,MARINE PARADE,EAST,GOVERNMENT-AIDED SCH,GIRLS' SCHOOL,SINGLE SESSION,SECONDARY,No,Yes,No,No,Chinese,Malay,Tamil
CHIJ OUR LADY OF GOOD COUNSEL,http://www.chijourladyofgoodcounsel.moe.edu.sg,2C   Burghley Drive,558979,62886930,62814132,chijolgcs@moe.edu.sg,SERANGOON,SOUTH,GOVERNMENT-AIDED SCH,GIRLS' SCHOOL,SINGLE SESSION,PRIMARY,No,No,No,No,Chinese,Malay,Tamil
CHIJ OUR LADY OF THE NATIVITY,http://www.chijourladyofthenativity.moe.edu.sg/,1257 UPPER SERANGOON ROAD,534793,63852455,63852012,chijoln@moe.edu.sg,HOUGANG,SOUTH,GOVERNMENT-AIDED SCH,GIRLS' SCHOOL,SINGLE SESSION,PRIMARY,No,No,No,No,Chinese,Malay,Tamil
CHIJ OUR LADY QUEEN OF PEACE,http://www.chijourladyqueenofpeace.moe.edu.sg/,4    Chestnut Drive,679287,67691529,67653551,CHIJOLQP@MOE.EDU.SG,BUKIT PANJANG,WEST,GOVERNMENT-AIDED SCH,GIRLS' SCHOOL,SINGLE SESSION,PRIMARY,No,No,No,No,Chinese,Malay,Tamil
CHIJ PRIMARY (TOA PAYOH),http://www.chijpritoapayoh.moe.edu.sg,628  Lorong 1 Toa Payoh,319765,63532164,63536362,CHIJTPPS@MOE.EDU.SG,TOA PAYOH,SOUTH,GOVERNMENT-AIDED SCH,GIRLS' SCHOOL,SINGLE SESSION,PRIMARY,No,No,No,No,Chinese,Malay,Tamil
CHIJ SECONDARY (TOA PAYOH),http://www.chijsec.edu.sg,626  LORONG 1 TOA PAYOH,319764,63534972,63544573,CHIJTPSS@MOE.EDU.SG,TOA PAYOH,SOUTH,GOVERNMENT-AIDED SCH,GIRLS' SCHOOL,SINGLE SESSION,SECONDARY,No,Yes,No,No,Chinese,Malay,Tamil
CHIJ ST. JOSEPH'S CONVENT,http://www.chijstjosephsconvent.moe.edu.sg,62   SENGKANG EAST WAY,548595,64897580,64897589,CHIJSJCS@MOE.EDU.SG,SENG KANG,NORTH,GOVERNMENT-AIDED SCH,GIRLS' SCHOOL,SINGLE SESSION,SECONDARY,No,No,No,No,Chinese,Malay,Tamil
CHIJ ST. NICHOLAS GIRLS' SCHOOL,http://www.chijstnicholasgirls.moe.edu.sg,501  ANG MO KIO STREET 13,569405,63541839 (Secondary),64511335 (Secondary),chijsng_sec@moe.edu.sg,ANG MO KIO,NORTH,GOVERNMENT-AIDED SCH,GIRLS' SCHOOL,SINGLE SESSION,MIXED LEVELS,Yes,Yes,No,Yes,Chinese,na,na
CHIJ ST. THERESA'S CONVENT,http://www.chijsttheresasconvent.moe.edu.sg,160  LOWER DELTA ROAD,99138,64775777,64775700,CHIJSTCS@MOE.EDU.SG,BUKIT MERAH,SOUTH,GOVERNMENT-AIDED SCH,GIRLS' SCHOOL,SINGLE SESSION,SECONDARY,No,No,No,No,Chinese,Malay,Tamil
CHONGFU SCHOOL,http://www.chongfu.moe.edu.sg/,170  YISHUN AVENUE 6,768959,67585527,62579571,CFS@MOE.EDU.SG,YISHUN,NORTH,GOVERNMENT-AIDED SCH,CO-ED SCHOOL,SINGLE SESSION,PRIMARY,No,No,No,No,Chinese,Malay,Tamil
CHONGZHENG PRIMARY SCHOOL,http://www.chongzhengpri.moe.edu.sg,1    TAMPINES STREET 21,529392,67819002,67845054,czps@moe.edu.sg,TAMPINES,EAST,GOVERNMENT SCHOOL,CO-ED SCHOOL,SINGLE SESSION,PRIMARY,No,No,No,No,Chinese,Malay,Tamil
CHRIST CHURCH SECONDARY SCHOOL,http://www.christchurchsec.moe.edu.sg,20   WOODLANDS DRIVE 17,737924,68933297,68932789,ccss@moe.edu.sg,WOODLANDS,NORTH,GOVERNMENT-AIDED SCH,CO-ED SCHOOL,SINGLE SESSION,SECONDARY,No,No,No,No,Chinese,Malay,Tamil
CHUA CHU KANG PRIMARY SCHOOL,http://www.chuachukangpri.moe.edu.sg,20   CHOA CHU KANG AVENUE 2,689905,67661574,67661583,cckps@moe.edu.sg,CHOA CHU KANG,WEST,GOVERNMENT SCHOOL,CO-ED SCHOOL,SINGLE SESSION,PRIMARY,No,No,No,No,Chinese,Malay,Tamil
CHUA CHU KANG SECONDARY SCHOOL,http://www.chuachukangsec.moe.edu.sg,3    TECK WHYE CRESCENT,688845,67655228,67636807,CCKSS@MOE.EDU.SG,CHOA CHU KANG,WEST,GOVERNMENT SCHOOL,CO-ED SCHOOL,SINGLE SESSION,SECONDARY,No,No,No,No,Chinese,Malay,Tamil
CHUNG CHENG HIGH SCHOOL (MAIN),http://www.chungchenghighmain.moe.edu.sg,50   GOODMAN ROAD,439012,63441393,63449686,CCHMS@MOE.EDU.SG,MARINE PARADE,EAST,GOVERNMENT-AIDED SCH,CO-ED SCHOOL,SINGLE SESSION,SECONDARY,Yes,Yes,No,No,Chinese,na,na
CHUNG CHENG HIGH SCHOOL (YISHUN),http://www.chungchenghighyishun.moe.edu.sg,11   YISHUN STREET 61,768547,67583912,67587397,cchys@moe.edu.sg,YISHUN,NORTH,GOVERNMENT-AIDED SCH,CO-ED SCHOOL,SINGLE SESSION,SECONDARY,No,No,No,No,Chinese,Malay,Tamil
CLEMENTI PRIMARY SCHOOL,http://www.clementipri.moe.edu.sg,8    CLEMENTI AVE 3,129903,67797449,67732898,admin_clementi_ps@moe.edu.sg,CLEMENTI,WEST,GOVERNMENT SCHOOL,CO-ED SCHOOL,SINGLE SESSION,PRIMARY,No,No,No,No,Chinese,Malay,Tamil
CLEMENTI TOWN SECONDARY SCHOOL,http://www.clementitownsec.moe.edu.sg,10   CLEMENTI AVE 3,129904,67777362,67789543,ctss@moe.edu.sg,CLEMENTI,WEST,GOVERNMENT SCHOOL,CO-ED SCHOOL,SINGLE SESSION,SECONDARY,No,No,No,No,Chinese,Malay,Tamil
COMMONWEALTH SECONDARY SCHOOL,http://www.commonwealthsec.moe.edu.sg,698  WEST COAST ROAD,608784,65606866,65645204,cwss@moe.edu.sg,JURONG EAST,WEST,GOVERNMENT SCHOOL,CO-ED SCHOOL,SINGLE SESSION,SECONDARY,No,Yes,No,No,Chinese,Malay,Tamil
COMPASSVALE PRIMARY SCHOOL,http://www.compassvalepri.moe.edu.sg/,21   COMPASSVALE ST,545091,63882819,63882798,cvps@moe.edu.sg,SENG KANG,NORTH,GOVERNMENT SCHOOL,CO-ED SCHOOL,SINGLE SESSION,PRIMARY,No,No,No,No,Chinese,Malay,Tamil
COMPASSVALE SECONDARY SCHOOL,http://www.compassvalesec.moe.edu.sg,51   COMPASSVALE CRESCENT,545083,68815047,68815998,CVSS@MOE.EDU.SG,SENG KANG,NORTH,GOVERNMENT SCHOOL,CO-ED SCHOOL,SINGLE SESSION,SECONDARY,No,No,No,No,Chinese,Malay,Tamil
CONCORD PRIMARY SCHOOL,http://www.concordpri.moe.edu.sg/,3    CHOA CHU KANG AVE 4,689814,67632139,67632452,CONCORD_PS@MOE.EDU.SG,CHOA CHU KANG,WEST,GOVERNMENT SCHOOL,CO-ED SCHOOL,SINGLE SESSION,PRIMARY,No,No,No,No,Chinese,Malay,Tamil
CORPORATION PRIMARY SCHOOL,http://www.corporationpri.moe.edu.sg,31   JURONG WEST STREET 24,648347,67957381,67957098,cps@moe.edu.sg,JURONG WEST,WEST,GOVERNMENT SCHOOL,CO-ED SCHOOL,SINGLE SESSION,PRIMARY,No,No,No,No,Chinese,Malay,Tamil
CRESCENT GIRLS' SCHOOL,http://www.crescent.edu.sg,357  TANGLIN ROAD,247961,64758711,64741248,CRESCENTGIRL@MOE.EDU.SG,BUKIT MERAH,SOUTH,GOVERNMENT SCHOOL,GIRLS' SCHOOL,SINGLE SESSION,SECONDARY,No,Yes,No,No,Chinese,Malay,Tamil
CREST SECONDARY SCHOOL,http://www.crestsec.edu.sg,561  JURONG EAST STREET 24,609561,68992779,68992668,info@crestsec.edu.sg,JURONG EAST,WEST,SPECIALISED SCHOOL,CO-ED SCHOOL,SINGLE SESSION,SECONDARY,No,No,No,No,Chinese,Malay,Tamil
DAMAI PRIMARY SCHOOL,http://www.damaipri.moe.edu.sg,52   BEDOK RESERVOIR CRESCENT,479226,64456483,64499681,DAMAI_PS@MOE.EDU.SG,BEDOK,EAST,GOVERNMENT SCHOOL,CO-ED SCHOOL,SINGLE SESSION,PRIMARY,No,No,No,No,Chinese,Malay,Tamil
DAMAI SECONDARY SCHOOL,http://www.damaisec.moe.edu.sg,4800 BEDOK RESERVOIR ROAD,479229,64436848,64425629,damai_ss@moe.edu.sg,BEDOK,EAST,GOVERNMENT SCHOOL,CO-ED SCHOOL,SINGLE SESSION,SECONDARY,No,No,No,No,Chinese,Malay,Tamil
DAZHONG PRIMARY SCHOOL,http://www.dazhongpri.moe.edu.sg,35   BUKIT BATOK STREET 31,659441,65658002,65636421,dazhong_ps@moe.edu.sg,BUKIT BATOK,WEST,GOVERNMENT SCHOOL,CO-ED SCHOOL,SINGLE SESSION,PRIMARY,No,No,No,No,Chinese,Malay,Tamil
DE LA SALLE SCHOOL,http://www.delasalle.moe.edu.sg,11   Choa Chu Kang St 52,689285,67667675,67622075,dlss@moe.edu.sg,CHOA CHU KANG,WEST,GOVERNMENT-AIDED SCH,CO-ED SCHOOL,SINGLE SESSION,PRIMARY,No,No,No,No,Chinese,Malay,Tamil
DEYI SECONDARY SCHOOL,http://www.deyisec.moe.edu.sg,1    ANG MO KIO STREET 42,569277,64561565,64583364,DEYI_SS@MOE.EDU.SG,ANG MO KIO,SOUTH,GOVERNMENT SCHOOL,CO-ED SCHOOL,SINGLE SESSION,SECONDARY,No,No,No,No,Chinese,Malay,Tamil
DUNEARN SECONDARY SCHOOL,http://www.dunearnsec.moe.edu.sg,21   BUKIT BATOK WEST AVENUE 2,659204,65653692,65668650,DUNEARN_SS@MOE.EDU.SG,BUKIT BATOK,WEST,GOVERNMENT SCHOOL,CO-ED SCHOOL,SINGLE SESSION,SECONDARY,No,No,No,No,Chinese,Malay,Tamil
DUNMAN HIGH SCHOOL,http://www.dunmanhigh.moe.edu.sg,10   TANJONG RHU ROAD,436895,63450533,63442316,DHS@MOE.EDU.SG,KALLANG,EAST,GOVERNMENT SCHOOL,CO-ED SCHOOL,SINGLE SESSION,MIXED LEVELS,Yes,Yes,Yes,Yes,Chinese,na,na
DUNMAN SECONDARY SCHOOL,http://www.dunmansec.moe.edu.sg,21   TAMPINES STREET 45,529093,67862668,67842164,DUNMAN_SS@MOE.EDU.SG,TAMPINES,EAST,GOVERNMENT SCHOOL,CO-ED SCHOOL,SINGLE SESSION,SECONDARY,No,Yes,No,No,Chinese,Malay,Tamil
EAST SPRING PRIMARY SCHOOL,http://www.eastspringpri.moe.edu.sg,31   TAMPINES ST 33,529258,67866192,67866649,esps@moe.edu.sg,TAMPINES,EAST,GOVERNMENT SCHOOL,CO-ED SCHOOL,SINGLE SESSION,PRIMARY,No,No,No,No,Chinese,Malay,Tamil
EAST SPRING SECONDARY SCHOOL,http://www.eastspringsec.moe.edu.sg,30   TAMPINES STREET 34,529231,65873805,65873804,esss@moe.edu.sg,TAMPINES,EAST,GOVERNMENT SCHOOL,CO-ED SCHOOL,SINGLE SESSION,SECONDARY,No,No,No,No,Chinese,Malay,Tamil
EDGEFIELD PRIMARY SCHOOL,http://www.edgefieldpri.moe.edu.sg,41   EDGEFIELD PLAINS,828869,63126091,63126093,edgefield_ps@moe.edu.sg,PUNGGOL,NORTH,GOVERNMENT SCHOOL,CO-ED SCHOOL,SINGLE SESSION,PRIMARY,No,No,No,No,Chinese,Malay,Tamil
EDGEFIELD SECONDARY SCHOOL,http://www.edgefieldsec.moe.edu.sg,36   PUNGGOL FIELD,828814,68839511,63153120,edgefield_ss@moe.edu.sg,PUNGGOL,NORTH,GOVERNMENT SCHOOL,CO-ED SCHOOL,SINGLE SESSION,SECONDARY,No,No,No,No,Chinese,Malay,Tamil
ELIAS PARK PRIMARY SCHOOL,http://www.eliasparkpri.moe.edu.sg,11   PASIR RIS STREET 52,518866,65844393,65844392,epps@moe.edu.sg,PASIR RIS,EAST,GOVERNMENT SCHOOL,CO-ED SCHOOL,SINGLE SESSION,PRIMARY,No,No,No,No,Chinese,Malay,Tamil
ENDEAVOUR PRIMARY SCHOOL,https://endeavourpri.moe.edu.sg/,10   Admiralty Link,757521,64824650,64824670,endeavour_ps@moe.edu.sg,SEMBAWANG,NORTH,GOVERNMENT SCHOOL,CO-ED SCHOOL,SINGLE SESSION,PRIMARY,No,No,No,No,Chinese,Malay,na
EUNOIA JUNIOR COLLEGE,http://www.eunoiajc.moe.edu.sg,2    Sin Ming Place,573838,63518388,63518399,eunoiajc@moe.edu.sg,BISHAN,NORTH,GOVERNMENT SCHOOL,CO-ED SCHOOL,FULL DAY,JUNIOR COLLEGE,No,No,No,Yes,Chinese,Malay,Tamil
EUNOS PRIMARY SCHOOL,http://www.eunospri.moe.edu.sg/,95   JALAN EUNOS,419529,67463336,67488554,eunos_ps@moe.edu.sg,GEYLANG,EAST,GOVERNMENT SCHOOL,CO-ED SCHOOL,SINGLE SESSION,PRIMARY,No,No,No,No,Chinese,Malay,Tamil
EVERGREEN PRIMARY SCHOOL,http://www.evergreenpri.moe.edu.sg/,31   WOODLANDS CIRCLE,738908,63687705,63688084,EVERGREEN_PS@MOE.EDU.SG,WOODLANDS,NORTH,GOVERNMENT SCHOOL,CO-ED SCHOOL,SINGLE SESSION,PRIMARY,No,No,No,No,Chinese,Malay,Tamil
EVERGREEN SECONDARY SCHOOL,http://www.evergreensec.moe.edu.sg,11   WOODLANDS STREET 83,738489,63656392,63658083,EVERGREEN_SS@MOE.EDU.SG,WOODLANDS,NORTH,GOVERNMENT SCHOOL,CO-ED SCHOOL,SINGLE SESSION,SECONDARY,No,No,No,No,Chinese,Malay,Tamil
FAIRFIELD METHODIST SCHOOL (PRIMARY),http://www.fmsp.moe.edu.sg/,100  DOVER ROAD,139648,67788431,67762948,fmsp@moe.edu.sg,QUEENSTOWN,SOUTH,GOVERNMENT-AIDED SCH,CO-ED SCHOOL,SINGLE SESSION,PRIMARY,No,No,No,No,Chinese,Malay,Tamil
FAIRFIELD METHODIST SCHOOL (SECONDARY),http://www.fairfieldmethodistsec.moe.edu.sg,102  DOVER ROAD,139649,67788702,67797482,FMSS@MOE.EDU.SG,QUEENSTOWN,SOUTH,GOVERNMENT-AIDED SCH,CO-ED SCHOOL,SINGLE SESSION,SECONDARY,No,Yes,No,No,Chinese,Malay,Tamil
FAJAR SECONDARY SCHOOL,http://www.fajarsec.moe.edu.sg,31   GANGSA ROAD,678972,67691491,67633025,FAJAR_SS@MOE.EDU.SG,BUKIT PANJANG,WEST,GOVERNMENT SCHOOL,CO-ED SCHOOL,SINGLE SESSION,SECONDARY,No,No,No,No,Chinese,Malay,Tamil
FARRER PARK PRIMARY SCHOOL,http://www.farrerparkpri.moe.edu.sg,2    FARRER PARK ROAD,217567,62952272,62942272,fpps@moe.edu.sg,KALLANG,SOUTH,GOVERNMENT SCHOOL,CO-ED SCHOOL,SINGLE SESSION,PRIMARY,No,No,No,No,Chinese,Malay,Tamil
FENGSHAN PRIMARY SCHOOL,http://www.fengshanpri.moe.edu.sg,307  BEDOK NORTH ROAD,469680,65860123,65860122,fsps@moe.edu.sg,BEDOK,EAST,GOVERNMENT SCHOOL,CO-ED SCHOOL,SINGLE SESSION,PRIMARY,No,No,No,No,Chinese,Malay,Tamil
FERN GREEN PRIMARY SCHOOL,www.ferngreenpri.moe.edu.sg,70   Fernvale Link,797538,68343100,68343116,ferngreen_ps@moe.edu.sg,SENG KANG,EAST,GOVERNMENT SCHOOL,CO-ED SCHOOL,SINGLE SESSION,PRIMARY,No,No,No,No,Chinese,Malay,Tamil
FERNVALE PRIMARY SCHOOL,www.fernvalepri.moe.edu.sg,1    Fernvale Lane,797701,63153051,63153067,fernvale_ps@moe.edu.sg,SENG KANG,NORTH,GOVERNMENT SCHOOL,CO-ED SCHOOL,SINGLE SESSION,PRIMARY,No,No,No,No,Chinese,Malay,Tamil
FIRST TOA PAYOH PRIMARY SCHOOL,http://www.firsttoapayohpri.moe.edu.sg,7    LORONG 8 TOA PAYOH,319252,62567822,62561102,FTPPS@MOE.EDU.SG,TOA PAYOH,SOUTH,GOVERNMENT SCHOOL,CO-ED SCHOOL,SINGLE SESSION,PRIMARY,No,No,No,No,Chinese,Malay,Tamil
FRONTIER PRIMARY SCHOOL,http://www.frontierpri.moe.edu.sg,20   Jurong West Street 61,648200,65789555,67908596,frontier_ps@moe.edu.sg,JURONG WEST,WEST,GOVERNMENT SCHOOL,CO-ED SCHOOL,SINGLE SESSION,PRIMARY,No,No,No,No,Chinese,Malay,Tamil
FUCHUN PRIMARY SCHOOL,http://www.fuchunpri.moe.edu.sg,23   WOODLANDS AVENUE 1,739063,63683925,63670117,FCPS@MOE.EDU.SG,WOODLANDS,NORTH,GOVERNMENT SCHOOL,CO-ED SCHOOL,SINGLE SESSION,PRIMARY,No,No,No,No,Chinese,Malay,Tamil
FUCHUN SECONDARY SCHOOL,http://www.fuchunsec.moe.edu.sg,21   WOODLANDS AVENUE 1,739062,63681984,63670180,fcss@moe.edu.sg,WOODLANDS,NORTH,GOVERNMENT SCHOOL,CO-ED SCHOOL,SINGLE SESSION,SECONDARY,No,No,No,No,Chinese,Malay,Tamil
FUHUA PRIMARY SCHOOL,http://www.fuhuapri.moe.edu.sg,65   JURONG EAST STREET 13,609647,65624370,65639542,fhps@moe.edu.sg,JURONG EAST,WEST,GOVERNMENT SCHOOL,CO-ED SCHOOL,SINGLE SESSION,PRIMARY,No,No,No,No,Chinese,Malay,Tamil
FUHUA SECONDARY SCHOOL,http://www.fuhuasec.moe.edu.sg,5    JURONG WEST STREET 41,649410,65633067,65634379,FHSS@MOE.EDU.SG,JURONG WEST,WEST,GOVERNMENT SCHOOL,CO-ED SCHOOL,SINGLE SESSION,SECONDARY,No,No,No,No,Chinese,Malay,Tamil
GAN ENG SENG PRIMARY SCHOOL,http://www.ganengsengpri.moe.edu.sg,100  REDHILL CLOSE,158901,64717451,64794152,gesps@moe.edu.sg,BUKIT MERAH,SOUTH,GOVERNMENT SCHOOL,CO-ED SCHOOL,SINGLE SESSION,PRIMARY,No,No,No,No,Chinese,Malay,Tamil
GAN ENG SENG SCHOOL,http://www.ganengsengsch.moe.edu.sg,1    HENDERSON ROAD,159561,64745594,64732479,GESS@MOE.EDU.SG,BUKIT MERAH,SOUTH,GOVERNMENT SCHOOL,CO-ED SCHOOL,SINGLE SESSION,SECONDARY,No,No,No,No,Chinese,Malay,Tamil
GEYLANG METHODIST SCHOOL (PRIMARY),www.geylangmethodistpri.moe.edu.sg,4    Geylang East Central,389706,67486746,67488980,GMSP@moe.edu.sg,GEYLANG,EAST,GOVERNMENT-AIDED SCH,CO-ED SCHOOL,SINGLE SESSION,PRIMARY,No,No,No,No,Chinese,Malay,Tamil
GEYLANG METHODIST SCHOOL (SECONDARY),http://www.geylangmethodistsec.moe.edu.sg,2    GEYLANG EAST CENTRAL,389705,67466503,67477317,gmss@moe.edu.sg,GEYLANG,EAST,GOVERNMENT-AIDED SCH,CO-ED SCHOOL,SINGLE SESSION,SECONDARY,No,No,No,No,Chinese,Malay,Tamil
GONGSHANG PRIMARY SCHOOL,http://www.gongshangpri.moe.edu.sg,1    TAMPINES STREET 42,529176,67831191,67880004,GSPS@MOE.EDU.SG,TAMPINES,EAST,GOVERNMENT SCHOOL,CO-ED SCHOOL,SINGLE SESSION,PRIMARY,No,No,No,No,Chinese,Malay,na
GREENDALE PRIMARY SCHOOL,http://www.greendalepri.moe.edu.sg,50   Edgedale Plains,828848,68861413,68861419,greendale_ps@moe.edu.sg,PUNGGOL,NORTH,GOVERNMENT SCHOOL,CO-ED SCHOOL,SINGLE SESSION,PRIMARY,No,No,No,No,Chinese,Malay,Tamil
GREENDALE SECONDARY SCHOOL,http://www.greendalesec.moe.edu.sg,51   EDGEDALE PLAINS,828866,63158616,63158420,greendale_ss@moe.edu.sg,PUNGGOL,NORTH,GOVERNMENT SCHOOL,CO-ED SCHOOL,SINGLE SESSION,SECONDARY,No,No,No,No,Chinese,Malay,Tamil
GREENRIDGE PRIMARY SCHOOL,http://www.greenridgepri.moe.edu.sg,11   JELAPANG ROAD,677744,67604265,67620189,GRPS@MOE.EDU.SG,BUKIT PANJANG,WEST,GOVERNMENT SCHOOL,CO-ED SCHOOL,SINGLE SESSION,PRIMARY,No,No,No,No,Chinese,Malay,Tamil
GREENRIDGE SECONDARY SCHOOL,http://www.greenridgesec.moe.edu.sg,32   BUKIT PANJANG RING ROAD,679938,67601052,67628334,gss@moe.edu.sg,BUKIT PANJANG,WEST,GOVERNMENT SCHOOL,CO-ED SCHOOL,SINGLE SESSION,SECONDARY,No,No,No,No,Chinese,Malay,Tamil
GREENWOOD PRIMARY SCHOOL,http://www.greenwoodpri.moe.edu.sg,11   WOODLANDS  DR  62,737942,63666158,63666159,greenwood_ps@moe.edu.sg,WOODLANDS,NORTH,GOVERNMENT SCHOOL,CO-ED SCHOOL,SINGLE SESSION,PRIMARY,No,No,No,No,Chinese,Malay,Tamil
GUANGYANG PRIMARY SCHOOL,http://www.guangyangpri.moe.edu.sg,6    Bishan Street 12,579806,62580455,62580010,GYPS@MOE.EDU.SG,BISHAN,SOUTH,GOVERNMENT SCHOOL,CO-ED SCHOOL,SINGLE SESSION,PRIMARY,No,No,No,No,Chinese,Malay,Tamil
GUANGYANG SECONDARY SCHOOL,http://guangyangsec.moe.edu.sg,8    BISHAN STREET 12,579807,62589781,63543108,gyss@moe.edu.sg,BISHAN,SOUTH,GOVERNMENT SCHOOL,CO-ED SCHOOL,SINGLE SESSION,SECONDARY,No,No,No,No,Chinese,Malay,Tamil
HAI SING CATHOLIC SCHOOL,http://www.haisingcatholic.moe.edu.sg,9    PASIR RIS DRIVE 6,519421,65827864,65822543,HSHS@MOE.EDU.SG,PASIR RIS,EAST,GOVERNMENT-AIDED SCH,CO-ED SCHOOL,SINGLE SESSION,SECONDARY,No,No,No,No,Chinese,Malay,Tamil
HAIG GIRLS' SCHOOL,http://www.haiggirls.moe.edu.sg,51   Koon Seng Road,427072,63440293,64474169,HAIGGIRLSSCH@MOE.EDU.SG,GEYLANG,EAST,GOVERNMENT SCHOOL,GIRLS' SCHOOL,SINGLE SESSION,PRIMARY,No,No,No,No,Chinese,Malay,Tamil
HENRY PARK PRIMARY SCHOOL,http://www.henryparkpri.moe.edu.sg,1    HOLLAND GROVE ROAD,278790,64663600,64691840,HPPS@MOE.EDU.SG,BUKIT TIMAH,WEST,GOVERNMENT SCHOOL,CO-ED SCHOOL,SINGLE SESSION,PRIMARY,No,No,Yes,No,Chinese,Malay,Tamil
HILLGROVE SECONDARY SCHOOL,http://www.hillgrovesec.moe.edu.sg,10   BUKIT BATOK STREET 52,659250,65603726,65630920,HILLGROVE_SS@MOE.EDU.SG,BUKIT BATOK,WEST,GOVERNMENT SCHOOL,CO-ED SCHOOL,SINGLE SESSION,SECONDARY,No,No,No,No,Chinese,Malay,Tamil
HOLY INNOCENTS' HIGH SCHOOL,http://www.holyinnocentshigh.moe.edu.sg,1191 UPPER SERANGOON ROAD,534786,62833381,62831737,HIHS@MOE.EDU.SG,HOUGANG,SOUTH,GOVERNMENT-AIDED SCH,CO-ED SCHOOL,SINGLE SESSION,SECONDARY,No,No,No,No,Chinese,Malay,Tamil
HOLY INNOCENTS' PRIMARY SCHOOL,http://www.holyinnocentspri.moe.edu.sg/,5    Lorong Low Koon,536451,62886516,62876393,HOLYINNOCENTSPRI@MOE.EDU.SG,HOUGANG,SOUTH,GOVERNMENT-AIDED SCH,CO-ED SCHOOL,SINGLE SESSION,PRIMARY,Yes,No,No,No,Chinese,na,na
HONG WEN SCHOOL,http://www.hongwen.moe.edu.sg,30   TOWNER ROAD,327829,62943340,62937625,hws@moe.edu.sg,KALLANG,SOUTH,GOVERNMENT-AIDED SCH,CO-ED SCHOOL,SINGLE SESSION,PRIMARY,Yes,No,No,No,Chinese,na,na
HORIZON PRIMARY SCHOOL,http://www.horizonpri.moe.edu.sg,61   Edgedale Plains,828819,67535411,67523971,horizon_ps@moe.edu.sg,PUNGGOL,NORTH,GOVERNMENT SCHOOL,CO-ED SCHOOL,SINGLE SESSION,PRIMARY,No,No,No,No,Chinese,Malay,Tamil
HOUGANG PRIMARY SCHOOL,http://www.hougangpri.moe.edu.sg/,1    HOUGANG ST 93,534238,64897445,64897446,HOUGANG_PS@MOE.EDU.SG,HOUGANG,NORTH,GOVERNMENT SCHOOL,CO-ED SCHOOL,SINGLE SESSION,PRIMARY,No,No,No,No,Chinese,Malay,Tamil
HOUGANG SECONDARY SCHOOL,http://www.hougangsec.moe.edu.sg,2    HOUGANG STREET 93,534256,63851990,63852015,HOUGANG_SS@MOE.EDU.SG,HOUGANG,NORTH,GOVERNMENT SCHOOL,CO-ED SCHOOL,SINGLE SESSION,SECONDARY,No,No,No,No,Chinese,Malay,Tamil
HUA YI SECONDARY SCHOOL,http://www.huayisec.moe.edu.sg,60   JURONG WEST ST 42,649371,65634568,65634505,HYSS@MOE.EDU.SG,JURONG WEST,WEST,GOVERNMENT SCHOOL,CO-ED SCHOOL,SINGLE SESSION,SECONDARY,No,No,No,No,Chinese,Malay,Tamil
HUAMIN PRIMARY SCHOOL,http://www.huaminpri.moe.edu.sg,21   YISHUN AVENUE 11,768857,67529004,67552455,huamin_ps@moe.edu.sg,YISHUN,NORTH,GOVERNMENT SCHOOL,CO-ED SCHOOL,SINGLE SESSION,PRIMARY,No,No,No,No,Chinese,Malay,Tamil
HWA CHONG INSTITUTION,http://www.hwachong.edu.sg,661  BUKIT TIMAH ROAD,269734,64683955,67695857,admin@hci.edu.sg,BUKIT TIMAH,WEST,INDEPENDENT SCHOOL,CO-ED SCHOOL,SINGLE SESSION,MIXED LEVELS,Yes,No,No,Yes,Chinese,na,na
INNOVA PRIMARY SCHOOL,http://www.innovapri.moe.edu.sg/,80   Woodlands Drive 17,737888,68944693,68942573,innova_pri@moe.edu.sg,WOODLANDS,NORTH,GOVERNMENT SCHOOL,CO-ED SCHOOL,SINGLE SESSION,PRIMARY,No,No,No,No,Chinese,Malay,Tamil
JIEMIN PRIMARY SCHOOL,http://www.jieminpri.moe.edu.sg,2    YISHUN STREET 71,768515,67586472,67559958,jiemin_ps@moe.edu.sg,YISHUN,NORTH,GOVERNMENT SCHOOL,CO-ED SCHOOL,SINGLE SESSION,PRIMARY,No,No,No,No,Chinese,Malay,Tamil
JING SHAN PRIMARY SCHOOL,http://www.jingshanpri.moe.edu.sg,5    ANG MO KIO ST 52,569228,64566305,64581619,jsps@moe.edu.sg,ANG MO KIO,SOUTH,GOVERNMENT SCHOOL,CO-ED SCHOOL,SINGLE SESSION,PRIMARY,No,No,No,No,Chinese,Malay,Tamil
JUNYUAN PRIMARY SCHOOL,https://junyuanpri.moe.edu.sg,2    Tampines Street 91,528906,67830375,67887395,JUNYUAN_PS@MOE.EDU.SG,TAMPINES,EAST,GOVERNMENT SCHOOL,CO-ED SCHOOL,SINGLE SESSION,PRIMARY,No,No,No,No,Chinese,Malay,Tamil
JUNYUAN SECONDARY SCHOOL,http://www.junyuansec.moe.edu.sg,11   TAMPINES STREET 84,528933,65873683,65873682,JUNYUAN_SS@MOE.EDU.SG,TAMPINES,EAST,GOVERNMENT SCHOOL,CO-ED SCHOOL,SINGLE SESSION,SECONDARY,No,No,No,No,Chinese,Malay,Tamil
JURONG PIONEER JUNIOR COLLEGE,http://jpjc.moe.edu.sg,21   Teck Whye Walk,688258,+65 6564 6878,+65 6765 1861,jpjc@moe.edu.sg,CHOA CHU KANG,WEST,GOVERNMENT SCHOOL,CO-ED SCHOOL,FULL DAY,JUNIOR COLLEGE,No,No,No,No,Chinese,Malay,Tamil
JURONG PRIMARY SCHOOL,http://www.jurongpri.moe.edu.sg,320  JURONG EAST Street 32,609476,65618837,65641964,JPS@MOE.EDU.SG,JURONG EAST,WEST,GOVERNMENT SCHOOL,CO-ED SCHOOL,SINGLE SESSION,PRIMARY,No,No,No,No,Chinese,Malay,Tamil
JURONG SECONDARY SCHOOL,http://www.jurongsec.moe.edu.sg,31   YUAN CHING ROAD,618652,62655980,62686414,JURONG_SS@MOE.EDU.SG,JURONG WEST,WEST,GOVERNMENT SCHOOL,CO-ED SCHOOL,SINGLE SESSION,SECONDARY,No,No,No,No,Chinese,Malay,Tamil
JURONG WEST PRIMARY SCHOOL,http://www.jurongwestpri.moe.edu.sg,30   JURONG WEST ST 61,648368,67933419,67936593,JWPS@MOE.EDU.SG,JURONG WEST,WEST,GOVERNMENT SCHOOL,CO-ED SCHOOL,SINGLE SESSION,PRIMARY,No,No,No,No,Chinese,Malay,Tamil
JURONG WEST SECONDARY SCHOOL,http://www.jurongwestsec.moe.edu.sg,61   JURONG WEST STREET 65,648348,62623593,62623587,JWSS@MOE.EDU.SG,JURONG WEST,WEST,GOVERNMENT SCHOOL,CO-ED SCHOOL,SINGLE SESSION,SECONDARY,No,No,No,No,Chinese,Malay,Tamil
JURONGVILLE SECONDARY SCHOOL,http://www.jurongvillesec.moe.edu.sg,202  JURONG EAST AVENUE 1,609790,65638704,65662137,JURONGVILLE@MOE.EDU.SG,JURONG EAST,WEST,GOVERNMENT SCHOOL,CO-ED SCHOOL,SINGLE SESSION,SECONDARY,No,No,No,No,Chinese,Malay,Tamil
JUYING PRIMARY SCHOOL,http://www.juyingpri.moe.edu.sg/,31   JURONG WEST STREET 91,649037,67932039,67932040,JUYING_PS@MOE.EDU.SG,JURONG WEST,WEST,GOVERNMENT SCHOOL,CO-ED SCHOOL,SINGLE SESSION,PRIMARY,No,No,No,No,Chinese,Malay,Tamil
JUYING SECONDARY SCHOOL,http://juyingsec.moe.edu.sg,33   JURONG WEST STREET 91,649038,63089898,67932835,JUYING_SS@MOE.EDU.SG,JURONG WEST,WEST,GOVERNMENT SCHOOL,CO-ED SCHOOL,SINGLE SESSION,SECONDARY,No,No,No,No,Chinese,Malay,Tamil
KEMING PRIMARY SCHOOL,http://www.kemingpri.moe.edu.sg,90   BUKIT BATOK EAST AVENUE 6,659762,68962054,65632356,KMPS@MOE.EDU.SG,BUKIT BATOK,WEST,GOVERNMENT SCHOOL,CO-ED SCHOOL,SINGLE SESSION,PRIMARY,No,No,No,No,Chinese,Malay,Tamil
KENT RIDGE SECONDARY SCHOOL,http://www.kentridgesec.moe.edu.sg,147  WEST COAST ROAD,127368,67731127,67735119,KRSS@MOE.EDU.SG,CLEMENTI,SOUTH,GOVERNMENT SCHOOL,CO-ED SCHOOL,SINGLE SESSION,SECONDARY,No,No,No,No,Chinese,Malay,na
KHENG CHENG SCHOOL,http://www.khengcheng.moe.edu.sg/,15   LORONG 3 TOA PAYOH,319580,62552502,62556569,kcs@moe.edu.sg,TOA PAYOH,SOUTH,GOVERNMENT-AIDED SCH,CO-ED SCHOOL,SINGLE SESSION,PRIMARY,No,No,No,No,Chinese,Malay,na
KONG HWA SCHOOL,http://www.konghwa.moe.edu.sg,350  GUILLEMARD ROAD,399772,63421195,63421120,KONGHWA_SCH@MOE.EDU.SG,GEYLANG,EAST,GOVERNMENT-AIDED SCH,CO-ED SCHOOL,SINGLE SESSION,PRIMARY,Yes,No,No,No,Chinese,na,na
KRANJI PRIMARY SCHOOL,http://kranjipri.moe.edu.sg,11   CHOA CHU KANG STREET 54,689189,67634812,67634568,kranji_ps@moe.edu.sg,CHOA CHU KANG,WEST,GOVERNMENT SCHOOL,CO-ED SCHOOL,SINGLE SESSION,PRIMARY,No,No,No,No,Chinese,Malay,Tamil
KRANJI SECONDARY SCHOOL,http://www.kranjisec.moe.edu.sg,61   CHOA CHU KANG STREET 51,689333,67662464,67662095,kranji_ss@moe.edu.sg,CHOA CHU KANG,WEST,GOVERNMENT SCHOOL,CO-ED SCHOOL,SINGLE SESSION,SECONDARY,No,No,No,No,Chinese,Malay,Tamil
KUO CHUAN PRESBYTERIAN PRIMARY SCHOOL,http://www.kuochuanpresbyterianpri.moe.edu.sg,8    BISHAN STREET 13,579793,62595396,62588012,KCPPS@MOE.EDU.SG,BISHAN,SOUTH,GOVERNMENT-AIDED SCH,CO-ED SCHOOL,SINGLE SESSION,PRIMARY,No,No,No,No,Chinese,Malay,Tamil
KUO CHUAN PRESBYTERIAN SECONDARY SCHOOL,http://www.kuochuanpresbyteriansec.moe.edu.sg,10   BISHAN STREET 13,579795,62593811,63536535,kcpss@moe.edu.sg,BISHAN,SOUTH,GOVERNMENT-AIDED SCH,CO-ED SCHOOL,SINGLE SESSION,SECONDARY,No,No,No,No,Chinese,Malay,Tamil
LAKESIDE PRIMARY SCHOOL,http://www.lakesidepri.moe.edu.sg/,161  Corporation Walk,618310,62620918,62621021,lakeside_ps@moe.edu.sg,JURONG WEST,WEST,GOVERNMENT SCHOOL,CO-ED SCHOOL,SINGLE SESSION,PRIMARY,No,No,No,No,Chinese,Malay,Tamil
LIANHUA PRIMARY SCHOOL,http://www.lianhuapri.moe.edu.sg/,2    BUKIT BATOK STREET 52,659243,65639502,65639591,lianhua_ps@moe.edu.sg,BUKIT BATOK,WEST,GOVERNMENT SCHOOL,CO-ED SCHOOL,SINGLE SESSION,PRIMARY,No,No,No,No,Chinese,Malay,Tamil
LOYANG VIEW SECONDARY SCHOOL,http://www.loyangviewsec.moe.edu.sg,12   PASIR RIS STREET 11,519073,65821727,65810557,loyangview_ss@moe.edu.sg,PASIR RIS,EAST,GOVERNMENT SCHOOL,CO-ED SCHOOL,SINGLE SESSION,SECONDARY,No,No,No,No,Chinese,Malay,Tamil
MAHA BODHI SCHOOL,http://www.mahabodhi.moe.edu.sg/,10   UBI AVENUE 1,408931,67442115,67443752,MBS@MOE.EDU.SG,GEYLANG,EAST,GOVERNMENT-AIDED SCH,CO-ED SCHOOL,SINGLE SESSION,PRIMARY,Yes,No,No,No,Chinese,na,na
MANJUSRI SECONDARY SCHOOL,http://www.manjusrisec.moe.edu.sg,20   UBI AVENUE 1,408940,68424558,67454492,manjusri_ss@moe.edu.sg,GEYLANG,EAST,GOVERNMENT-AIDED SCH,CO-ED SCHOOL,SINGLE SESSION,SECONDARY,No,No,No,No,Chinese,Malay,na
MARIS STELLA HIGH SCHOOL,http://www.marisstellahigh.moe.edu.sg,25   MOUNT VERNON ROAD,368051,62803880 (Sec),62886905 (Sec),msh@moe.edu.sg,TOA PAYOH,NORTH,GOVERNMENT-AIDED SCH,BOYS' SCHOOL,SINGLE SESSION,MIXED LEVELS,Yes,Yes,No,No,Chinese,na,na
MARSILING PRIMARY SCHOOL,http://www.marsilingpri.moe.edu.sg,31   WOODLANDS CENTRE ROAD,738927,62696193,62699050,MARSILING_PS@MOE.EDU.SG,WOODLANDS,NORTH,GOVERNMENT SCHOOL,CO-ED SCHOOL,SINGLE SESSION,PRIMARY,No,No,No,No,Chinese,Malay,Tamil
MARSILING SECONDARY SCHOOL,http://www.marsilingsec.moe.edu.sg,12   MARSILING ROAD,739110,68941413,68946156,MARSILING_SS@MOE.EDU.SG,WOODLANDS,NORTH,GOVERNMENT SCHOOL,CO-ED SCHOOL,SINGLE SESSION,SECONDARY,No,No,No,No,Chinese,Malay,Tamil
MARYMOUNT CONVENT SCHOOL,HTTP://WWW.MARYMOUNTCONVENT.MOE.EDU.SG,20   Marymount Road,297754,6256 6701,6254 3080,enquire@marymount.edu.sg,TOA PAYOH,SOUTH,GOVERNMENT-AIDED SCH,GIRLS' SCHOOL,SINGLE SESSION,PRIMARY,No,No,No,No,Chinese,Malay,Tamil
MAYFLOWER PRIMARY SCHOOL,http://www.mayflowerpri.moe.edu.sg,6    Ang Mo Kio Avenue 2,569948,64520849,64534116,MAYFLOWER_PS@MOE.EDU.SG,ANG MO KIO,SOUTH,GOVERNMENT SCHOOL,CO-ED SCHOOL,SINGLE SESSION,PRIMARY,No,No,No,No,Chinese,Malay,Tamil
MAYFLOWER SECONDARY SCHOOL,http://www.mayflowersec.moe.edu.sg,2    ANG MO KIO STREET 21,569384,64577783,64583284,MAYFLOWER_SS@MOE.EDU.SG,ANG MO KIO,SOUTH,GOVERNMENT SCHOOL,CO-ED SCHOOL,SINGLE SESSION,SECONDARY,No,No,No,No,Chinese,Malay,Tamil
MEE TOH SCHOOL,http://www.meetoh.moe.edu.sg/,21   EDGEDALE PLAINS,828867,64893326,64893243,MEETOH_SCH@MOE.EDU.SG,PUNGGOL,NORTH,GOVERNMENT-AIDED SCH,CO-ED SCHOOL,SINGLE SESSION,PRIMARY,No,No,No,No,Chinese,Malay,na
MERIDIAN PRIMARY SCHOOL,http://www.meridianpri.moe.edu.sg/,20   PASIR RIS ST 71,518798,65832125,65834993,MERIDIAN_PS@MOE.EDU.SG,PASIR RIS,EAST,GOVERNMENT SCHOOL,CO-ED SCHOOL,SINGLE SESSION,PRIMARY,No,No,No,No,Chinese,Malay,Tamil
MERIDIAN SECONDARY SCHOOL,http://www.meridiansec.moe.edu.sg,31   PASIR RIS STREET 51,518901,65831387,65836467,meridian_sec@moe.edu.sg,PASIR RIS,EAST,GOVERNMENT SCHOOL,CO-ED SCHOOL,SINGLE SESSION,SECONDARY,No,No,No,No,Chinese,Malay,Tamil
METHODIST GIRLS' SCHOOL (PRIMARY),http://www.mgs.sch.edu.sg,11   Blackmore Drive,599986,64694800,64624166,mgps@moe.edu.sg,BUKIT TIMAH,WEST,GOVERNMENT-AIDED SCH,GIRLS' SCHOOL,SINGLE SESSION,PRIMARY,No,No,No,No,Chinese,Malay,Tamil
METHODIST GIRLS' SCHOOL (SECONDARY),http://www.mgs.moe.edu.sg,11   BLACKMORE DRIVE,599986,64694800,64698717,MGSS@MOE.EDU.SG,BUKIT TIMAH,WEST,INDEPENDENT SCHOOL,GIRLS' SCHOOL,SINGLE SESSION,SECONDARY,No,No,No,Yes,Chinese,Malay,Tamil
MILLENNIA INSTITUTE,http://www.millenniainstitute.moe.edu.sg,60   Bukit Batok West Avenue 8,658965,63023700,63023767,millennia_inst@moe.edu.sg,BUKIT BATOK,WEST,GOVERNMENT SCHOOL,CO-ED SCHOOL,FULL DAY,CENTRALISED INSTITUTE,No,No,No,No,Chinese,Malay,Tamil
MONTFORT JUNIOR SCHOOL,http://www.montfortjunior.moe.edu.sg/,52   HOUGANG AVENUE 8,538786,65101588,65101599,MONTFORT_JS@MOE.EDU.SG,HOUGANG,NORTH,GOVERNMENT-AIDED SCH,BOYS' SCHOOL,SINGLE SESSION,PRIMARY,No,No,No,No,Chinese,Malay,Tamil
MONTFORT SECONDARY SCHOOL,https://montfortsec.moe.edu.sg/,50   HOUGANG AVENUE 8,538785,65107070,63862804,contact@montfortsec.edu.sg,HOUGANG,NORTH,GOVERNMENT-AIDED SCH,BOYS' SCHOOL,SINGLE SESSION,SECONDARY,No,No,No,No,Chinese,Malay,Tamil
NAN CHIAU HIGH SCHOOL,http://www.nchs.edu.sg,20   ANCHORVALE LINK,545079,64897971,64897970,nchs@moe.edu.sg,SENG KANG,NORTH,GOVERNMENT-AIDED SCH,CO-ED SCHOOL,SINGLE SESSION,SECONDARY,Yes,No,No,No,Chinese,na,na
NAN CHIAU PRIMARY SCHOOL,http://www.ncps.moe.edu.sg,50   ANCHORVALE LINK,545080,64897905,64897906,NCPS@MOE.EDU.SG,SENG KANG,NORTH,GOVERNMENT-AIDED SCH,CO-ED SCHOOL,SINGLE SESSION,PRIMARY,No,No,No,No,Chinese,Malay,Tamil
NAN HUA HIGH SCHOOL,http://www.nanhuahigh.moe.edu.sg,41   CLEMENTI AVENUE 1,129956,67788303,67751956,nhhs@moe.edu.sg,CLEMENTI,WEST,GOVERNMENT SCHOOL,CO-ED SCHOOL,SINGLE SESSION,SECONDARY,Yes,Yes,No,No,Chinese,na,na
NAN HUA PRIMARY SCHOOL,http://www.nanhuapri.moe.edu.sg,30   Jalan Lempeng,128806,67788050,67784127,nhps@moe.edu.sg,CLEMENTI,WEST,GOVERNMENT-AIDED SCH,CO-ED SCHOOL,DOUBLE SESSION,PRIMARY,Yes,No,Yes,No,Chinese,na,na
NANYANG GIRLS' HIGH SCHOOL,https://www.nygh.edu.sg,2    LINDEN DRIVE,288683,64663275,64667564,nanyanggirls@nygh.edu.sg,BUKIT TIMAH,WEST,INDEPENDENT SCHOOL,GIRLS' SCHOOL,SINGLE SESSION,SECONDARY,Yes,No,Yes,Yes,Chinese,na,na
NANYANG JUNIOR COLLEGE,http://www.nanyangjc.moe.edu.sg/,128  SERANGOON AVENUE 3,556111,62842281,62855147,nyjc@moe.edu.sg,SERANGOON,SOUTH,GOVERNMENT-AIDED SCH,CO-ED SCHOOL,FULL DAY,JUNIOR COLLEGE,No,No,No,No,na,na,na
NANYANG PRIMARY SCHOOL,http://www.nyps.moe.edu.sg,52   KING'S ROAD,268097,64672677,64686913,NYPS@MOE.EDU.SG,BUKIT TIMAH,WEST,GOVERNMENT-AIDED SCH,CO-ED SCHOOL,SINGLE SESSION,PRIMARY,Yes,No,Yes,No,Chinese,na,na
NATIONAL JUNIOR COLLEGE,http://www.nationaljc.moe.edu.sg,37   HILLCREST ROAD,288913,64661144,64684535,NJC@MOE.EDU.SG,BUKIT TIMAH,SOUTH,GOVERNMENT SCHOOL,CO-ED SCHOOL,FULL DAY,MIXED LEVELS,No,No,No,Yes,Chinese,Malay,Tamil
NAVAL BASE PRIMARY SCHOOL,http://www.navalbasepri.moe.edu.sg/,7    YISHUN AVE 4,769028,67537114,67555355,NBPS@MOE.EDU.SG,YISHUN,NORTH,GOVERNMENT SCHOOL,CO-ED SCHOOL,SINGLE SESSION,PRIMARY,No,No,No,No,Chinese,Malay,Tamil
NAVAL BASE SECONDARY SCHOOL,http://www.navalbasesec.moe.edu.sg,901  YISHUN RING ROAD,768689,62571996,67557706,NBSS@MOE.EDU.SG,YISHUN,NORTH,GOVERNMENT SCHOOL,CO-ED SCHOOL,SINGLE SESSION,SECONDARY,No,No,No,No,Chinese,Malay,Tamil
NEW TOWN PRIMARY SCHOOL,http://www.newtownpri.moe.edu.sg/,300  Tanglin Halt Road,148812,64748805,64741249,NTPS@MOE.EDU.SG,QUEENSTOWN,SOUTH,GOVERNMENT SCHOOL,CO-ED SCHOOL,SINGLE SESSION,PRIMARY,No,No,No,No,Chinese,Malay,Tamil
NEW TOWN SECONDARY SCHOOL,http://www.newtownsec.moe.edu.sg,1020 DOVER ROAD,139657,67754140,67752310,ntss@moe.edu.sg,QUEENSTOWN,WEST,GOVERNMENT SCHOOL,CO-ED SCHOOL,SINGLE SESSION,SECONDARY,No,No,No,No,Chinese,Malay,Tamil
NGEE ANN PRIMARY SCHOOL,http://www.ngeeannpri.moe.edu.sg,344  MARINE TERRACE,449149,64418677,64417411,NAPS@MOE.EDU.SG,MARINE PARADE,EAST,GOVERNMENT-AIDED SCH,CO-ED SCHOOL,SINGLE SESSION,PRIMARY,No,No,No,No,Chinese,Malay,Tamil
NGEE ANN SECONDARY SCHOOL,http://www.ngeeannsec.moe.edu.sg,1    TAMPINES STREET 32,529283,67844583,67840453,nass@moe.edu.sg,TAMPINES,EAST,GOVERNMENT-AIDED SCH,CO-ED SCHOOL,SINGLE SESSION,SECONDARY,No,Yes,No,No,Chinese,Malay,Tamil
NORTH SPRING PRIMARY SCHOOL,http://www.northspringpri.moe.edu.sg,1    RIVERVALE STREET,545088,68816887,63851044,nsps@moe.edu.sg,SENG KANG,NORTH,GOVERNMENT SCHOOL,CO-ED SCHOOL,SINGLE SESSION,PRIMARY,No,No,No,No,Chinese,Malay,Tamil
NORTH VIEW PRIMARY SCHOOL,http://www.northviewpri.moe.edu.sg,210  YISHUN AVENUE 6,768960,67593235,67593237,NVPS@MOE.EDU.SG,YISHUN,NORTH,GOVERNMENT SCHOOL,CO-ED SCHOOL,SINGLE SESSION,PRIMARY,No,No,No,No,Chinese,Malay,Tamil
NORTH VISTA PRIMARY SCHOOL,http://www.northvistapri.moe.edu.sg,20   Compassvale Link,544974,64843566,64843568,nvtps@moe.edu.sg,SENG KANG,NORTH,GOVERNMENT SCHOOL,CO-ED SCHOOL,SINGLE SESSION,PRIMARY,No,No,No,No,Chinese,Malay,na
NORTH VISTA SECONDARY SCHOOL,http://www.northvistasec.moe.edu.sg,11   RIVERVALE LINK,545081,68793930,68793931,northvistass@moe.edu.sg,SENG KANG,NORTH,GOVERNMENT SCHOOL,CO-ED SCHOOL,SINGLE SESSION,SECONDARY,No,No,No,No,Chinese,Malay,Tamil
NORTHBROOKS SECONDARY SCHOOL,http://www.northbrookssec.moe.edu.sg,585  YISHUN RING ROAD,768692,67524311,67566110,NORTHBROOKS@MOE.EDU.SG,YISHUN,NORTH,GOVERNMENT SCHOOL,CO-ED SCHOOL,SINGLE SESSION,SECONDARY,No,No,No,No,Chinese,Malay,Tamil
NORTHLAND PRIMARY SCHOOL,http://www.northlandpri.moe.edu.sg,15   YISHUN AVENUE 4,769026,67598884,67559196,NORTHLAND_PS@MOE.EDU.SG,YISHUN,NORTH,GOVERNMENT SCHOOL,CO-ED SCHOOL,SINGLE SESSION,PRIMARY,No,No,No,No,Chinese,Malay,Tamil
NORTHLAND SECONDARY SCHOOL,http://www.northlandsec.moe.edu.sg,3    YISHUN STREET 22,768578,62576781,62573634,NORTHLAND_SS@MOE.EDU.SG,YISHUN,NORTH,GOVERNMENT SCHOOL,CO-ED SCHOOL,SINGLE SESSION,SECONDARY,No,No,No,No,Chinese,Malay,Tamil
NORTHLIGHT SCHOOL,https://www.nls.edu.sg,151  Towner Road,327830,+65 69296290,+ 65 62912423,nls@moe.edu.sg,KALLANG,SOUTH,SPECIALISED SCHOOL,CO-ED SCHOOL,FULL DAY,SECONDARY,No,No,No,No,Chinese,Malay,Tamil
NORTHOAKS PRIMARY SCHOOL,http://www.northoakspri.moe.edu.sg,61   Sembawang Drive,757622,6753 8835,6753 8864,northoaks_ps@moe.edu.sg,SEMBAWANG,NORTH,GOVERNMENT SCHOOL,CO-ED SCHOOL,SINGLE SESSION,PRIMARY,No,No,No,No,Chinese,Malay,Tamil
NORTHSHORE PRIMARY SCHOOL,www.northshorepri.moe.edu.sg,30   Northshore Drive,828671,62026490,62026491,northhshore_ps@moe.edu.sg,PUNGGOL,EAST,GOVERNMENT SCHOOL,CO-ED SCHOOL,SINGLE SESSION,PRIMARY,No,No,No,No,Chinese,Malay,Tamil
NUS HIGH SCHOOL OF MATHEMATICS AND SCIENCE,www.nushigh.edu.sg,20   Clementi Avenue 1,129957,65161709,67756910,einstein@highsch.nus.edu.sg,CLEMENTI,WEST,SPECIALISED INDEPENDENT SCHOOL,CO-ED SCHOOL,FULL DAY,MIXED LEVELS,No,No,No,Yes,Chinese,Malay,Tamil
OASIS PRIMARY SCHOOL,http://www.oasispri.moe.edu.sg/,71   Edgefield Plains,828716,6320 9855,6320 9856,oasis_ps@moe.edu.sg,PUNGGOL,EAST,GOVERNMENT SCHOOL,CO-ED SCHOOL,SINGLE SESSION,PRIMARY,No,No,No,No,Chinese,Malay,Tamil
OPERA ESTATE PRIMARY SCHOOL,http://www.operaestatepri.moe.edu.sg,48   FIDELIO STREET,458436,62410417,64493042,oeps@moe.edu.sg,BEDOK,EAST,GOVERNMENT SCHOOL,CO-ED SCHOOL,SINGLE SESSION,PRIMARY,No,No,No,No,Chinese,Malay,Tamil
ORCHID PARK SECONDARY SCHOOL,http://www.orchidparksec.moe.edu.sg,10   YISHUN STREET 81,768454,67598547,67588770,opss@moe.edu.sg,YISHUN,NORTH,GOVERNMENT SCHOOL,CO-ED SCHOOL,SINGLE SESSION,SECONDARY,No,No,No,No,Chinese,Malay,Tamil
OUTRAM SECONDARY SCHOOL,http://www.outramsec.moe.edu.sg,3    YORK HILL,168622,67334077,62352337,OSS@MOE.EDU.SG,CENTRAL,SOUTH,GOVERNMENT SCHOOL,CO-ED SCHOOL,SINGLE SESSION,SECONDARY,No,No,No,No,Chinese,Malay,Tamil
PALM VIEW PRIMARY SCHOOL,http://www.palmviewpri.moe.edu.sg,150  Compassvale Bow,544822,65087300,68754150,palmview_ps@moe.edu.sg,SENG KANG,NORTH,GOVERNMENT SCHOOL,CO-ED SCHOOL,SINGLE SESSION,PRIMARY,No,No,No,No,Chinese,Malay,na
PARK VIEW PRIMARY SCHOOL,http://www.parkviewpri.moe.edu.sg,60   PASIR RIS DRIVE 1,519524,65851421,65851401,PVPS@MOE.EDU.SG,PASIR RIS,EAST,GOVERNMENT SCHOOL,CO-ED SCHOOL,SINGLE SESSION,PRIMARY,No,No,No,No,Chinese,Malay,Tamil
PASIR RIS CREST SECONDARY SCHOOL,http://www.prcss.moe.edu.sg,11   PASIR RIS STREET 41,518934,65811655,65813226,prcss@moe.edu.sg,PASIR RIS,EAST,GOVERNMENT SCHOOL,CO-ED SCHOOL,SINGLE SESSION,SECONDARY,No,No,No,No,Chinese,Malay,Tamil
PASIR RIS PRIMARY SCHOOL,http://www.pasirrispri.moe.edu.sg,5    PASIR RIS STREET 21,518968,65822606,65828492,prps@moe.edu.sg,PASIR RIS,EAST,GOVERNMENT SCHOOL,CO-ED SCHOOL,SINGLE SESSION,PRIMARY,No,No,No,No,Chinese,Malay,Tamil
PASIR RIS SECONDARY SCHOOL,http://pasirrissec.moe.edu.sg,390  TAMPINES STREET 21,529400,65010800,65010900,prss@moe.edu.sg,TAMPINES,EAST,GOVERNMENT SCHOOL,CO-ED SCHOOL,SINGLE SESSION,SECONDARY,No,No,No,No,Chinese,Malay,Tamil
PAYA LEBAR METHODIST GIRLS' SCHOOL (PRIMARY),http://www.payalebarmethodistgirlspri.moe.edu.sg/,298  LORONG AH SOO,536741,62862795,62803915,PLMGPS@MOE.EDU.SG,HOUGANG,EAST,GOVERNMENT-AIDED SCH,GIRLS' SCHOOL,SINGLE SESSION,PRIMARY,No,No,No,No,Chinese,Malay,Tamil
PAYA LEBAR METHODIST GIRLS' SCHOOL (SECONDARY),http://www.plmgss.moe.edu.sg,296  LOR AH SOO,536742,62816606,63820558,plmgss@moe.edu.sg,HOUGANG,EAST,GOVERNMENT-AIDED SCH,GIRLS' SCHOOL,SINGLE SESSION,SECONDARY,No,Yes,No,No,Chinese,Malay,Tamil
PEI CHUN PUBLIC SCHOOL,http://www.peichunpublic.moe.edu.sg,16   LORONG 7 TOA PAYOH,319320,63539450,63538418,PCPS@MOE.EDU.SG,TOA PAYOH,SOUTH,GOVERNMENT-AIDED SCH,CO-ED SCHOOL,SINGLE SESSION,PRIMARY,Yes,No,No,No,Chinese,na,na
PEI HWA PRESBYTERIAN PRIMARY SCHOOL,http://www.peihwapresbyterianpri.moe.edu.sg/,7    PEI WAH AVENUE,597610,64663787,64621944,phpps@moe.edu.sg,BUKIT TIMAH,WEST,GOVERNMENT-AIDED SCH,CO-ED SCHOOL,DOUBLE SESSION,PRIMARY,Yes,No,No,No,Chinese,na,na
PEI HWA SECONDARY SCHOOL,http://www.peihwasec.moe.edu.sg,21   FERNVALE LINK,797702,65009580,63438326,peihwasec@moe.edu.sg,SENG KANG,NORTH,GOVERNMENT SCHOOL,CO-ED SCHOOL,SINGLE SESSION,SECONDARY,No,No,No,No,Chinese,Malay,Tamil
PEI TONG PRIMARY SCHOOL,http://www.peitongpri.moe.edu.sg/,15   CLEMENTI AVENUE 5,129857,67775458,67789784,PTPS@MOE.EDU.SG,CLEMENTI,SOUTH,GOVERNMENT SCHOOL,CO-ED SCHOOL,SINGLE SESSION,PRIMARY,No,No,No,No,Chinese,Malay,Tamil
PEICAI SECONDARY SCHOOL,http://www.peicaisec.moe.edu.sg,10   SERANGOON AVENUE 4,556094,62884159,62830480,peicai_ss@moe.edu.sg,SERANGOON,SOUTH,GOVERNMENT SCHOOL,CO-ED SCHOOL,SINGLE SESSION,SECONDARY,No,No,No,No,Chinese,Malay,Tamil
PEIRCE SECONDARY SCHOOL,http://www.peircesec.moe.edu.sg,10   SIN MING WALK,575566,64576454,64576448,PEIRCE_SS@MOE.EDU.SG,BISHAN,SOUTH,GOVERNMENT SCHOOL,CO-ED SCHOOL,SINGLE SESSION,SECONDARY,No,No,No,No,Chinese,Malay,Tamil
PEIYING PRIMARY SCHOOL,http://www.peiyingpri.moe.edu.sg,651  YISHUN RING ROAD,768687,62575684,67558802,peiying_ps@moe.edu.sg,YISHUN,NORTH,GOVERNMENT SCHOOL,CO-ED SCHOOL,SINGLE SESSION,PRIMARY,No,No,No,No,Chinese,Malay,Tamil
PING YI SECONDARY SCHOOL,http://pingyisec.moe.edu.sg,61   CHAI CHEE STREET,468980,64489580,64442731,pyss@moe.edu.sg,BEDOK,EAST,GOVERNMENT SCHOOL,CO-ED SCHOOL,SINGLE SESSION,SECONDARY,No,No,No,No,Chinese,Malay,Tamil
PIONEER PRIMARY SCHOOL,http://www.pioneerpri.moe.edu.sg,23   JURONG WEST STREET 81,649076,67932397,67933974,pioneer_ps@moe.edu.sg,JURONG WEST,WEST,GOVERNMENT SCHOOL,CO-ED SCHOOL,SINGLE SESSION,PRIMARY,No,No,No,No,Chinese,Malay,Tamil
POI CHING SCHOOL,http://www.poiching.moe.edu.sg,21   TAMPINES STREET 71,529067,67856420,67857198,contact@poiching.moe.edu.sg,TAMPINES,EAST,GOVERNMENT-AIDED SCH,CO-ED SCHOOL,SINGLE SESSION,PRIMARY,Yes,No,No,No,Chinese,na,na
PRESBYTERIAN HIGH SCHOOL,http://www.presbyterian.moe.edu.sg,5209 ANG MO KIO AVENUE 6,569845,64543722,64543430,presbyterian@moe.edu.sg,ANG MO KIO,SOUTH,GOVERNMENT-AIDED SCH,CO-ED SCHOOL,SINGLE SESSION,SECONDARY,No,No,No,No,Chinese,Malay,Tamil
PRINCESS ELIZABETH PRIMARY SCHOOL,http://www.princesselizabethpri.moe.edu.sg,30   BUKIT BATOK WEST AVENUE 3,659163,65655111,65637859,PEPS@MOE.EDU.SG,BUKIT BATOK,WEST,GOVERNMENT SCHOOL,CO-ED SCHOOL,SINGLE SESSION,PRIMARY,No,No,No,No,Chinese,Malay,Tamil
PUNGGOL COVE PRIMARY SCHOOL,https://punggolcovepri.moe.edu.sg/,52   Sumang Walk,828674,63857339,63857261,punggolcove_ps@moe.edu.sg,PUNGGOL,EAST,GOVERNMENT SCHOOL,CO-ED SCHOOL,SINGLE SESSION,PRIMARY,No,No,No,No,Chinese,Malay,Tamil
PUNGGOL GREEN PRIMARY SCHOOL,http://www.punggolgreenpri.moe.edu.sg,98   Punggol Walk,828772,65383011,65383210,admin_punggolgreen_ps@moe.edu.sg,PUNGGOL,EAST,GOVERNMENT SCHOOL,CO-ED SCHOOL,SINGLE SESSION,PRIMARY,No,No,No,No,Chinese,Malay,Tamil
PUNGGOL PRIMARY SCHOOL,http://www.punggolpri.moe.edu.sg/,61   HOUGANG AVENUE 8,538787,63850762,63877793,punggol_ps@moe.edu.sg,HOUGANG,SOUTH,GOVERNMENT SCHOOL,CO-ED SCHOOL,SINGLE SESSION,PRIMARY,No,No,No,No,Chinese,Malay,Tamil
PUNGGOL SECONDARY SCHOOL,http://www.punggolsec.moe.edu.sg,51   EDGEFIELD PLAINS,828870,64897851,64897859,PUNGGOL_SS@MOE.EDU.SG,PUNGGOL,NORTH,GOVERNMENT SCHOOL,CO-ED SCHOOL,SINGLE SESSION,SECONDARY,No,No,No,No,Chinese,Malay,Tamil
PUNGGOL VIEW PRIMARY SCHOOL,http://www.punggolviewpri.moe.edu.sg,9    Punggol Place,828845,6570 1588,6570 3680,punggolview_ps@moe.edu.sg,PUNGGOL,EAST,GOVERNMENT SCHOOL,CO-ED SCHOOL,SINGLE SESSION,PRIMARY,No,No,No,No,Chinese,Malay,Tamil
QIFA PRIMARY SCHOOL,http://www.qifapri.moe.edu.sg,50   WEST COAST AVENUE,128104,67783085,67761485,QIFA_PS@MOE.EDU.SG,CLEMENTI,WEST,GOVERNMENT SCHOOL,CO-ED SCHOOL,SINGLE SESSION,PRIMARY,No,No,No,No,Chinese,Malay,Tamil
QIHUA PRIMARY SCHOOL,http://www.qihuapri.moe.edu.sg,5    WOODLANDS STREET 81,738525,62696250,62693114,QIHUA_PS@MOE.EDU.SG,WOODLANDS,NORTH,GOVERNMENT SCHOOL,CO-ED SCHOOL,SINGLE SESSION,PRIMARY,No,No,No,No,Chinese,Malay,Tamil
QUEENSTOWN PRIMARY SCHOOL,http://www.queenstownpri.moe.edu.sg,310  MARGARET DR,149303,64741044,64713640,qtps@moe.edu.sg,QUEENSTOWN,SOUTH,GOVERNMENT SCHOOL,CO-ED SCHOOL,SINGLE SESSION,PRIMARY,No,No,No,No,Chinese,Malay,Tamil
QUEENSTOWN SECONDARY SCHOOL,http://www.queenstownsec.moe.edu.sg,1    STRATHMORE ROAD,148800,64741055,64741295,qtss@moe.edu.sg,QUEENSTOWN,SOUTH,GOVERNMENT SCHOOL,CO-ED SCHOOL,SINGLE SESSION,SECONDARY,No,No,No,No,Chinese,Malay,Tamil
QUEENSWAY SECONDARY SCHOOL,http://www.queenswaysec.moe.edu.sg,2A   MARGARET DRIVE,149295,64741421,64741302,QSS@moe.edu.sg,QUEENSTOWN,SOUTH,GOVERNMENT SCHOOL,CO-ED SCHOOL,SINGLE SESSION,SECONDARY,No,No,No,No,Chinese,Malay,Tamil
RADIN MAS PRIMARY SCHOOL,http://www.radinmasps.moe.edu.sg,1    BUKIT PURMEI AVENUE,99840,62733937,62763083,rmps@moe.edu.sg,BUKIT MERAH,SOUTH,GOVERNMENT SCHOOL,CO-ED SCHOOL,SINGLE SESSION,PRIMARY,No,No,No,No,Chinese,Malay,Tamil
RAFFLES GIRLS' PRIMARY SCHOOL,http://www.rafflesgirlspri.moe.edu.sg,21   Hillcrest Road,289072,64684377,64692024,RGPS@MOE.EDU.SG,BUKIT TIMAH,SOUTH,GOVERNMENT SCHOOL,GIRLS' SCHOOL,SINGLE SESSION,PRIMARY,No,No,Yes,No,Chinese,Malay,Tamil
RAFFLES GIRLS' SCHOOL (SECONDARY),http://www.rgs.edu.sg,2    BRADDELL RISE,318871,67371845,62353731,RGSS@MOE.EDU.SG,CENTRAL,SOUTH,INDEPENDENT SCHOOL,GIRLS' SCHOOL,SINGLE SESSION,SECONDARY,No,No,Yes,Yes,Chinese,Malay,Tamil
RAFFLES INSTITUTION,http://www.ri.edu.sg,1    RAFFLES INSTITUTION LANE,575954,64199242,64199238,comms@ri.edu.sg,BISHAN,SOUTH,INDEPENDENT SCHOOL,CO-ED SCHOOL,SINGLE SESSION,MIXED LEVELS,No,No,Yes,Yes,Chinese,Malay,Tamil
RED SWASTIKA SCHOOL,http://www.redswastika.moe.edu.sg,350  BEDOK NORTH AVENUE 3,469719,64430380,62448391,REDSWASTIKA@MOE.EDU.SG,BEDOK,EAST,GOVERNMENT-AIDED SCH,CO-ED SCHOOL,SINGLE SESSION,PRIMARY,Yes,No,No,No,Chinese,na,na
REGENT SECONDARY SCHOOL,http://regentsec.moe.edu.sg,50   CHOA CHU KANG NORTH 5,689621,67653828,67653413,REGENT_SS@MOE.EDU.SG,CHOA CHU KANG,WEST,GOVERNMENT SCHOOL,CO-ED SCHOOL,SINGLE SESSION,SECONDARY,No,No,No,No,Chinese,Malay,Tamil
RIVER VALLEY HIGH SCHOOL,https://rivervalleyhigh.moe.edu.sg/,6    BOON LAY AVENUE,649961,65678115,65677351,RVHS@MOE.EDU.SG,JURONG WEST,WEST,GOVERNMENT SCHOOL,CO-ED SCHOOL,SINGLE SESSION,MIXED LEVELS,Yes,Yes,No,Yes,Chinese,na,na
RIVER VALLEY PRIMARY SCHOOL,http://www.rivervalleypri.moe.edu.sg,2    RIVER VALLEY GREEN,237993,67371785,67321951,rvps@moe.edu.sg,CENTRAL,SOUTH,GOVERNMENT SCHOOL,CO-ED SCHOOL,SINGLE SESSION,PRIMARY,No,No,No,No,Chinese,Malay,Tamil
RIVERSIDE PRIMARY SCHOOL,http://www.riversidepri.moe.edu.sg,110  Woodlands Crescent,737803,63654490,63654460,riverside_ps@moe.edu.sg,WOODLANDS,NORTH,GOVERNMENT SCHOOL,CO-ED SCHOOL,SINGLE SESSION,PRIMARY,No,No,No,No,Chinese,Malay,Tamil
RIVERSIDE SECONDARY SCHOOL,http://www.riversidesec.moe.edu.sg,3    WOODLANDS STREET 81,738524,62699631,63683677,RIVERSIDE_SS@MOE.EDU.SG,WOODLANDS,NORTH,GOVERNMENT SCHOOL,CO-ED SCHOOL,SINGLE SESSION,SECONDARY,No,No,No,No,Chinese,Malay,Tamil
RIVERVALE PRIMARY SCHOOL,http://www.rivervalepri.moe.edu.sg/,80   RIVERVALE DRIVE,545092,63887450,63887449,RIVERVALE_PS@MOE.EDU.SG,SENG KANG,NORTH,GOVERNMENT SCHOOL,CO-ED SCHOOL,SINGLE SESSION,PRIMARY,No,No,No,No,Chinese,Malay,Tamil
ROSYTH SCHOOL,https://www.rosyth.moe.edu.sg,21   Serangoon North Avenue 4,555855,64812273,64831102,rosyth_sch@schools.gov.sg,SERANGOON,NORTH,GOVERNMENT SCHOOL,CO-ED SCHOOL,SINGLE SESSION,PRIMARY,No,No,Yes,No,Chinese,Malay,Tamil
RULANG PRIMARY SCHOOL,http://www.rulangpri.moe.edu.sg/,6    JURONG WEST STREET 52,649295,65657771,65632382,RULANG_PS@MOE.EDU.SG,JURONG WEST,WEST,GOVERNMENT SCHOOL,CO-ED SCHOOL,DOUBLE SESSION,PRIMARY,No,No,No,No,Chinese,Malay,Tamil
SCHOOL OF SCIENCE AND TECHNOLOGY,http://www.sst.edu.sg,1    Technology Drive,138572,(65) 65717200,(65) 68720856,contactus@sst.edu.sg,CLEMENTI,WEST,SPECIALISED INDEPENDENT SCHOOL,CO-ED SCHOOL,FULL DAY,SECONDARY,No,No,No,No,Chinese,Malay,Tamil
SCHOOL OF THE ARTS,http://www.sota.edu.sg/,1    Zubir Said Drive,227968,6338 9663,6338 9763,enquiries@sota.edu.sg,CENTRAL,SOUTH,SPECIALISED INDEPENDENT SCHOOL,CO-ED SCHOOL,SINGLE SESSION,MIXED LEVELS,No,No,No,No,Chinese,Malay,Tamil
SEMBAWANG PRIMARY SCHOOL,http://www.sembawangpri.moe.edu.sg,10   SEMBAWANG DRIVE,757715,67567330,67560367,SEMBAWANG_PS@MOE.EDU.SG,SEMBAWANG,NORTH,GOVERNMENT SCHOOL,CO-ED SCHOOL,SINGLE SESSION,PRIMARY,No,No,No,No,Chinese,Malay,Tamil
SEMBAWANG SECONDARY SCHOOL,http://www.sembawangsec.moe.edu.sg,30   SEMBAWANG CRESCENT,757704,67566760,67585380,SEMBAWANG_SS@MOE.EDU.SG,SEMBAWANG,NORTH,GOVERNMENT SCHOOL,CO-ED SCHOOL,SINGLE SESSION,SECONDARY,No,No,No,No,Chinese,Malay,Tamil
SENG KANG PRIMARY SCHOOL,http://www.sengkangpri.moe.edu.sg/,21   COMPASSVALE WALK,545166,63840809,63840839,SKPS@MOE.EDU.SG,SENG KANG,NORTH,GOVERNMENT SCHOOL,CO-ED SCHOOL,SINGLE SESSION,PRIMARY,No,No,No,No,Chinese,Malay,Tamil
SENG KANG SECONDARY SCHOOL,http://www.sengkangsec.moe.edu.sg,10   COMPASSVALE LANE,545090,63887258,63887254,skss@moe.edu.sg,SENG KANG,NORTH,GOVERNMENT SCHOOL,CO-ED SCHOOL,SINGLE SESSION,SECONDARY,No,No,No,No,Chinese,Malay,Tamil
SENGKANG GREEN PRIMARY SCHOOL,http://www.sengkanggreenpri.moe.edu.sg/,15   Fernvale Road,797636,63864255,62428796,sengkanggreen_ps@moe.edu.sg,SENG KANG,EAST,GOVERNMENT SCHOOL,CO-ED SCHOOL,SINGLE SESSION,PRIMARY,No,No,No,No,Chinese,Malay,Tamil
SERANGOON GARDEN SECONDARY SCHOOL,http://www.sgs.edu.sg,21   SERANGOON NORTH AVENUE 1,555889,62889227,62888695,sgss@moe.edu.sg,SERANGOON,SOUTH,GOVERNMENT SCHOOL,CO-ED SCHOOL,SINGLE SESSION,SECONDARY,No,No,No,No,Chinese,Malay,Tamil
SERANGOON SECONDARY SCHOOL,http://www.serangoonsec.moe.edu.sg,11   UPPER SERANGOON VIEW,534237,63851589,63851635,SERANGOON_SS@MOE.EDU.SG,HOUGANG,NORTH,GOVERNMENT SCHOOL,CO-ED SCHOOL,SINGLE SESSION,SECONDARY,No,No,No,No,Chinese,Malay,Tamil
SHUQUN PRIMARY SCHOOL,http://www.shuqunpri.moe.edu.sg,8    JURONG WEST STREET 51,649332,65637129,65637418,sqps@moe.edu.sg,JURONG WEST,WEST,GOVERNMENT SCHOOL,CO-ED SCHOOL,SINGLE SESSION,PRIMARY,No,No,No,No,Chinese,Malay,Tamil
SI LING PRIMARY SCHOOL,http://www.silingpri.moe.edu.sg,61   WOODLANDS AVENUE 1,739067,62698832,63675516,SLPS@MOE.EDU.SG,WOODLANDS,NORTH,GOVERNMENT SCHOOL,CO-ED SCHOOL,SINGLE SESSION,PRIMARY,No,No,No,No,Chinese,Malay,Tamil
SINGAPORE CHINESE GIRLS' PRIMARY SCHOOL,www.scgs.moe.edu.sg,190  DUNEARN ROAD,309437,62527966,62523076,SCGPS@MOE.EDU.SG,NOVENA,NORTH,GOVERNMENT-AIDED SCH,GIRLS' SCHOOL,SINGLE SESSION,PRIMARY,No,No,No,No,Chinese,Malay,Tamil
SINGAPORE CHINESE GIRLS' SCHOOL,http://www.scgs.moe.edu.sg,190  DUNEARN ROAD,309437,62527966,62523076,SCGSS@MOE.EDU.SG,NOVENA,NORTH,INDEPENDENT SCHOOL,GIRLS' SCHOOL,SINGLE SESSION,SECONDARY,No,No,No,Yes,Chinese,Malay,Tamil
SINGAPORE SPORTS SCHOOL,http://www.sportsschool.edu.sg,1    Champions Way,737913,67660100,67662100,enquire@sportsschool.edu.sg,WOODLANDS,NORTH,SPECIALISED INDEPENDENT SCHOOL,CO-ED SCHOOL,FULL DAY,MIXED LEVELS,No,No,No,No,Chinese,Malay,Tamil
SOUTH VIEW PRIMARY SCHOOL,http://www.southviewpri.moe.edu.sg,6    Choa Chu Kang Central,689762,67697176,67631091,SVPS@MOE.EDU.SG,CHOA CHU KANG,WEST,GOVERNMENT SCHOOL,CO-ED SCHOOL,SINGLE SESSION,PRIMARY,No,No,No,No,Chinese,Malay,Tamil
SPECTRA SECONDARY SCHOOL,https://www.spectra.edu.sg,1    WOODLANDS DRIVE 64,737758,64660775,64623928,spectra@schools.gov.sg,WOODLANDS,NORTH,SPECIALISED SCHOOL,CO-ED SCHOOL,SINGLE SESSION,SECONDARY,No,No,No,No,Chinese,Malay,Tamil
SPRINGDALE PRIMARY SCHOOL,http://springdalepri.moe.edu.sg/,71   Anchorvale Link,544799,+65 63157600,+65 63153351,springdale_ps@moe.edu.sg,SENG KANG,EAST,GOVERNMENT SCHOOL,CO-ED SCHOOL,SINGLE SESSION,PRIMARY,No,No,No,No,Chinese,Malay,Tamil
SPRINGFIELD SECONDARY SCHOOL,http://www.springfieldsec.moe.edu.sg,30   TAMPINES AVENUE 8,529593,63183053,63183050,SPRINGFIELDS@MOE.EDU.SG,TAMPINES,EAST,GOVERNMENT SCHOOL,CO-ED SCHOOL,SINGLE SESSION,SECONDARY,No,No,No,No,Chinese,Malay,na
ST. ANDREW'S JUNIOR COLLEGE,http://www.standrewsjc.moe.edu.sg/,5    Sorby Adams Drive,357691,62857008,62850037,sajc@moe.edu.sg,TOA PAYOH,SOUTH,GOVERNMENT-AIDED SCH,CO-ED SCHOOL,FULL DAY,JUNIOR COLLEGE,No,No,No,No,na,na,na
ST. ANDREW'S JUNIOR SCHOOL,http://www.saintandrewsjunior.moe.edu.sg,2    FRANCIS THOMAS DRIVE,359337,62884303,62895242,sajs@moe.edu.sg,TOA PAYOH,SOUTH,GOVERNMENT-AIDED SCH,BOYS' SCHOOL,SINGLE SESSION,PRIMARY,No,No,No,No,Chinese,Malay,Tamil
ST. ANDREW'S SECONDARY SCHOOL,http://www.standrewssec.moe.edu.sg,15   FRANCIS THOMAS DRIVE,359342,62851944,63823779,sass@moe.edu.sg,TOA PAYOH,SOUTH,GOVERNMENT-AIDED SCH,BOYS' SCHOOL,SINGLE SESSION,SECONDARY,No,No,No,No,Chinese,Malay,Tamil
ST. ANTHONY'S CANOSSIAN PRIMARY SCHOOL,http://www.stanthonyscanossianpri.moe.edu.sg,1602 BEDOK NORTH AVE 4,469701,64492239,64492146,sacps@moe.edu.sg,BEDOK,EAST,GOVERNMENT-AIDED SCH,GIRLS' SCHOOL,SINGLE SESSION,PRIMARY,No,No,No,No,Chinese,Malay,Tamil
ST. ANTHONY'S CANOSSIAN SECONDARY SCHOOL,http://www.stanthonyscanossiansec.moe.edu.sg,1600 BEDOK NORTH AVENUE 4,469700,64490616,64490162,sacss@moe.edu.sg,BEDOK,EAST,GOVERNMENT-AIDED SCH,GIRLS' SCHOOL,SINGLE SESSION,SECONDARY,No,Yes,No,No,Chinese,Malay,Tamil
ST. ANTHONY'S PRIMARY SCHOOL,http://www.stanthonyspri.moe.edu.sg,30   Bukit Batok St 32,659401,65690822,65690811,SAPS@MOE.EDU.SG,BUKIT BATOK,WEST,GOVERNMENT-AIDED SCH,CO-ED SCHOOL,SINGLE SESSION,PRIMARY,No,No,No,No,Chinese,Malay,Tamil
ST. GABRIEL'S PRIMARY SCHOOL,http://www.stgabrielspri.moe.edu.sg,220  Lorong Chuan,556742,62803628,63820344,STGPS@MOE.EDU.SG,SERANGOON,SOUTH,GOVERNMENT-AIDED SCH,BOYS' SCHOOL,SINGLE SESSION,PRIMARY,No,No,No,No,Chinese,Malay,Tamil
ST. GABRIEL'S SECONDARY SCHOOL,http://www.stgabrielssec.moe.edu.sg,24   SERANGOON AVENUE 1,556140,62889470,62898615,STGSS@MOE.EDU.SG,SERANGOON,SOUTH,GOVERNMENT-AIDED SCH,BOYS' SCHOOL,SINGLE SESSION,SECONDARY,No,No,No,No,Chinese,Malay,Tamil
ST. HILDA'S PRIMARY SCHOOL,http://www.shps.moe.edu.sg,2    Tampines Ave 3,529706,67811916,67830527,shps@moe.edu.sg,TAMPINES,EAST,GOVERNMENT-AIDED SCH,CO-ED SCHOOL,SINGLE SESSION,PRIMARY,No,No,Yes,No,Chinese,Malay,Tamil
ST. HILDA'S SECONDARY SCHOOL,http://www.sthildassec.moe.edu.sg,2    TAMPINES STREET 82,528986,63055277,67865011,SHSS@MOE.EDU.SG,TAMPINES,EAST,GOVERNMENT-AIDED SCH,CO-ED SCHOOL,SINGLE SESSION,SECONDARY,No,No,No,No,Chinese,Malay,Tamil
ST. JOSEPH'S INSTITUTION,http://www.sji.edu.sg,38   MALCOLM ROAD,308274,62500022,62533640,contact@sji.edu.sg,NOVENA,SOUTH,INDEPENDENT SCHOOL,CO-ED SCHOOL,SINGLE SESSION,MIXED LEVELS,No,No,No,Yes,Chinese,Malay,Tamil
ST. JOSEPH'S INSTITUTION JUNIOR,http://www.sjijunior.edu.sg,3    ESSEX ROAD,309331,62552700,62557455,sjijunior@moe.edu.sg,NOVENA,SOUTH,GOVERNMENT-AIDED SCH,BOYS' SCHOOL,SINGLE SESSION,PRIMARY,No,No,No,No,Chinese,Malay,Tamil
ST. MARGARET'S PRIMARY SCHOOL,na,2    Mattar Road,387724,na,na,na,CENTRAL,SOUTH,GOVERNMENT-AIDED SCH,GIRLS' SCHOOL,SINGLE SESSION,PRIMARY,No,No,No,No,Chinese,Malay,Tamil
ST. MARGARET'S SECONDARY SCHOOL,http://www.stmargaretssec.moe.edu.sg,111  FARRER ROAD,259240,64664525,64666709,stmargaretss@moe.edu.sg,BUKIT TIMAH,SOUTH,GOVERNMENT-AIDED SCH,GIRLS' SCHOOL,SINGLE SESSION,SECONDARY,No,Yes,No,No,Chinese,Malay,Tamil
ST. PATRICK'S SCHOOL,http://www.stpatricks.moe.edu.sg,490  EAST COAST ROAD,429058,63440929,63445152,stpatricksch@moe.edu.sg,BEDOK,EAST,GOVERNMENT-AIDED SCH,BOYS' SCHOOL,SINGLE SESSION,SECONDARY,No,No,No,No,Chinese,Malay,Tamil
ST. STEPHEN'S SCHOOL,http://www.ststephens.moe.edu.sg,20   SIGLAP VIEW,455789,62419513,64422576,STSTEPHENSCH@MOE.EDU.SG,BEDOK,EAST,GOVERNMENT-AIDED SCH,BOYS' SCHOOL,SINGLE SESSION,PRIMARY,No,No,No,No,Chinese,Malay,Tamil
STAMFORD PRIMARY SCHOOL,http://www.stamfordpri.moe.edu.sg,1    VICTORIA LANE,198423,62945074,62919262,STAMFORD_PS@MOE.EDU.SG,CENTRAL,SOUTH,GOVERNMENT SCHOOL,CO-ED SCHOOL,SINGLE SESSION,PRIMARY,No,No,No,No,Chinese,Malay,Tamil
SWISS COTTAGE SECONDARY SCHOOL,http://www.swisscottagesec.moe.edu.sg,3    BUKIT BATOK STREET 34,659322,65637173,65693028,SCSS@MOE.EDU.SG,BUKIT BATOK,WEST,GOVERNMENT SCHOOL,CO-ED SCHOOL,SINGLE SESSION,SECONDARY,No,No,No,No,Chinese,Malay,Tamil
TAMPINES MERIDIAN JUNIOR COLLEGE,http://www.tmjc.moe.edu.sg,21   Pasir Ris Street 71,518799,63493660,63493667,tmjc@moe.edu.sg,PASIR RIS,EAST,GOVERNMENT SCHOOL,CO-ED SCHOOL,FULL DAY,JUNIOR COLLEGE,No,No,No,No,Chinese,Malay,Tamil
TAMPINES NORTH PRIMARY SCHOOL,http://www.tampinesnorthpri.moe.edu.sg,30   TAMPINES AVENUE 9,529565,67854329,67863117,TNPS@MOE.EDU.SG,TAMPINES,EAST,GOVERNMENT SCHOOL,CO-ED SCHOOL,SINGLE SESSION,PRIMARY,No,No,No,No,Chinese,Malay,Tamil
TAMPINES PRIMARY SCHOOL,http://www.tampinespri.moe.edu.sg,250  TAMPINES STREET 12,529426,67831190,67843521,TPPS@MOE.EDU.SG,TAMPINES,EAST,GOVERNMENT SCHOOL,CO-ED SCHOOL,SINGLE SESSION,PRIMARY,No,No,No,No,Chinese,Malay,Tamil
TAMPINES SECONDARY SCHOOL,https://www.tampinessec.moe.edu.sg,252  TAMPINES ST 12,529427,67835423,67843059,TPSS@MOE.EDU.SG,TAMPINES,EAST,GOVERNMENT SCHOOL,CO-ED SCHOOL,SINGLE SESSION,SECONDARY,No,No,No,No,Chinese,Malay,Tamil
TANGLIN SECONDARY SCHOOL,http://www.tanglinsec.moe.edu.sg,301  WEST COAST ROAD,127391,64248200,67734457,tanglin_ss@moe.edu.sg,CLEMENTI,SOUTH,GOVERNMENT SCHOOL,CO-ED SCHOOL,SINGLE SESSION,SECONDARY,No,No,No,No,Chinese,Malay,Tamil
TANJONG KATONG GIRLS' SCHOOL,http://www.tkgs.moe.edu.sg,20   Dunman Lane,439272,63441593,63451487,tkgs@moe.edu.sg,MARINE PARADE,EAST,GOVERNMENT SCHOOL,GIRLS' SCHOOL,SINGLE SESSION,SECONDARY,No,Yes,No,No,Chinese,Malay,Tamil
TANJONG KATONG PRIMARY SCHOOL,http://www.tanjongkatongpri.moe.edu.sg/,10   Seraya Road,437259,63444728,63445370,TKPS@MOE.EDU.SG,MARINE PARADE,EAST,GOVERNMENT SCHOOL,CO-ED SCHOOL,SINGLE SESSION,PRIMARY,No,No,No,No,Chinese,Malay,Tamil
TANJONG KATONG SECONDARY SCHOOL,http://www.tanjongkatongsec.moe.edu.sg,130  HAIG ROAD,438796,63443471,64409624,tkss@moe.edu.sg,MARINE PARADE,EAST,GOVERNMENT SCHOOL,CO-ED SCHOOL,SINGLE SESSION,SECONDARY,No,Yes,No,No,Chinese,Malay,Tamil
TAO NAN SCHOOL,http://www.taonan.moe.edu.sg,49   MARINE CRESCENT,449761,64428307,64435973,taonan_sch@moe.edu.sg,MARINE PARADE,EAST,GOVERNMENT-AIDED SCH,CO-ED SCHOOL,SINGLE SESSION,PRIMARY,Yes,No,Yes,No,Chinese,na,na
TECK GHEE PRIMARY SCHOOL,http://www.teckgheepri.moe.edu.sg,1    ANG MO KIO STREET 32,569299,64548769,64589886,tgps@moe.edu.sg,ANG MO KIO,SOUTH,GOVERNMENT SCHOOL,CO-ED SCHOOL,SINGLE SESSION,PRIMARY,No,No,No,No,Chinese,Malay,Tamil
TECK WHYE PRIMARY SCHOOL,http://www.teckwhyepri.moe.edu.sg,11   TECK WHYE WALK,688261,67691025,67635191,twps@moe.edu.sg,CHOA CHU KANG,WEST,GOVERNMENT SCHOOL,CO-ED SCHOOL,SINGLE SESSION,PRIMARY,No,No,No,No,Chinese,Malay,Tamil
TECK WHYE SECONDARY SCHOOL,http://www.teckwhyesec.moe.edu.sg,31   TECK WHYE CRESCENT,688848,67691386,67630487,TWSS@MOE.EDU.SG,CHOA CHU KANG,WEST,GOVERNMENT SCHOOL,CO-ED SCHOOL,SINGLE SESSION,SECONDARY,No,No,No,No,Chinese,Malay,Tamil
TELOK KURAU PRIMARY SCHOOL,http://www.telokkuraupri.moe.edu.sg,50   BEDOK RESERVOIR RD,479239,62441600,62442182,telokkuraups@moe.edu.sg,BEDOK,EAST,GOVERNMENT SCHOOL,CO-ED SCHOOL,SINGLE SESSION,PRIMARY,No,No,No,No,Chinese,Malay,Tamil
TEMASEK JUNIOR COLLEGE,http://www.temasekjc.moe.edu.sg,22   BEDOK SOUTH ROAD,469278,64428066,64428762,TEMASEK_JC@MOE.EDU.SG,BEDOK,EAST,GOVERNMENT SCHOOL,CO-ED SCHOOL,FULL DAY,MIXED LEVELS,No,No,No,Yes,Chinese,Malay,Tamil
TEMASEK PRIMARY SCHOOL,http://www.temasekpri.moe.edu.sg,501  BEDOK SOUTH AVE 3,469300,64438134,64495871,temasek_ps@moe.edu.sg,BEDOK,EAST,GOVERNMENT SCHOOL,CO-ED SCHOOL,SINGLE SESSION,PRIMARY,No,No,No,No,Chinese,Malay,Tamil
TEMASEK SECONDARY SCHOOL,https://temaseksec.moe.edu.sg,600  UPPER EAST COAST ROAD,465561,64495020,64491450,temasek_ss@moe.edu.sg,BEDOK,EAST,GOVERNMENT SCHOOL,CO-ED SCHOOL,SINGLE SESSION,SECONDARY,No,Yes,No,No,Chinese,Malay,Tamil
TOWNSVILLE PRIMARY SCHOOL,http://www.townsvillepri.moe.edu.sg/,3    ANG MO KIO AVE 10,569730,64574345,64570141,TOWNSVILLEPS@MOE.EDU.SG,ANG MO KIO,SOUTH,GOVERNMENT SCHOOL,CO-ED SCHOOL,SINGLE SESSION,PRIMARY,No,No,No,No,Chinese,Malay,Tamil
UNITY PRIMARY SCHOOL,http://www.unitypri.moe.edu.sg,21   CHOA CHU KANG CRESCENT,688268,67676750,67676751,UNITY_PS@MOE.EDU.SG,CHOA CHU KANG,WEST,GOVERNMENT SCHOOL,CO-ED SCHOOL,SINGLE SESSION,PRIMARY,No,No,No,No,Chinese,Malay,na
UNITY SECONDARY SCHOOL,http://www.unitysec.moe.edu.sg,20   CHOA CHU KANG STREET 62,689143,67671070,67654189,UNITY_SS@MOE.EDU.SG,CHOA CHU KANG,WEST,GOVERNMENT SCHOOL,CO-ED SCHOOL,SINGLE SESSION,SECONDARY,No,No,No,No,Chinese,Malay,Tamil
VALOUR PRIMARY SCHOOL,valourpri.moe.edu.sg,49   Punggol Central,828728,62426390,na,valour_ps@moe.edu.sg,PUNGGOL,EAST,GOVERNMENT SCHOOL,CO-ED SCHOOL,SINGLE SESSION,PRIMARY,No,No,No,No,Chinese,Malay,na
VICTORIA JUNIOR COLLEGE,http://www.victoriajc.moe.edu.sg/,20   MARINE VISTA,449035,64485011,64438337,victoria_jc@moe.edu.sg,BEDOK,EAST,GOVERNMENT SCHOOL,CO-ED SCHOOL,FULL DAY,JUNIOR COLLEGE,No,No,No,Yes,Chinese,Malay,Tamil
VICTORIA SCHOOL,http://www.victoria.moe.edu.sg,2    SIGLAP LINK,448880,62912965,64452609,VICTORIA_SCH@MOE.EDU.SG,BEDOK,EAST,GOVERNMENT SCHOOL,BOYS' SCHOOL,SINGLE SESSION,SECONDARY,No,Yes,Yes,Yes,Chinese,Malay,Tamil
WATERWAY PRIMARY SCHOOL,https://waterwaypri.moe.edu.sg,70   Punggol Drive,828802,6636 6880,6315 3451,waterway_ps@moe.edu.sg,PUNGGOL,EAST,GOVERNMENT SCHOOL,CO-ED SCHOOL,SINGLE SESSION,PRIMARY,No,No,No,No,Chinese,Malay,Tamil
WELLINGTON PRIMARY SCHOOL,http://www.wellingtonpri.moe.edu.sg,10   WELLINGTON CIRCLE,757702,67533319,67533765,WELLINGTONPS@MOE.EDU.SG,SEMBAWANG,NORTH,GOVERNMENT SCHOOL,CO-ED SCHOOL,SINGLE SESSION,PRIMARY,No,No,No,No,Chinese,Malay,Tamil
WEST GROVE PRIMARY SCHOOL,http://www.westgrovepri.moe.edu.sg/,1    JURONG WEST ST 72,649223,62679234,62679235,WGPS@MOE.EDU.SG,JURONG WEST,WEST,GOVERNMENT SCHOOL,CO-ED SCHOOL,SINGLE SESSION,PRIMARY,No,No,No,No,Chinese,Malay,Tamil
WEST SPRING PRIMARY SCHOOL,http://www.westspringpri.moe.edu.sg,60   Bukit Panjang Ring Road,679946,63144192,na,westspring_ps@moe.edu.sg,BUKIT PANJANG,WEST,GOVERNMENT SCHOOL,CO-ED SCHOOL,SINGLE SESSION,PRIMARY,No,No,No,No,Chinese,Malay,Tamil
WEST SPRING SECONDARY SCHOOL,http://www.westspringsec.moe.edu.sg,61   SENJA  ROAD,677737,68920369,68929468,westspringss@moe.edu.sg,BUKIT PANJANG,WEST,GOVERNMENT SCHOOL,CO-ED SCHOOL,SINGLE SESSION,SECONDARY,No,No,No,No,Chinese,Malay,Tamil
WEST VIEW PRIMARY SCHOOL,http://www.westviewpri.moe.edu.sg,31   SENJA ROAD,677742,67600178,67600147,wvps@moe.edu.sg,BUKIT PANJANG,WEST,GOVERNMENT SCHOOL,CO-ED SCHOOL,SINGLE SESSION,PRIMARY,No,No,No,No,Chinese,Malay,Tamil
WESTWOOD PRIMARY SCHOOL,http://www.westwoodpri.moe.edu.sg,1    Jurong West Street 73,649188,64121690,67945084,westwood_ps@moe.edu.sg,JURONG WEST,WEST,GOVERNMENT SCHOOL,CO-ED SCHOOL,SINGLE SESSION,PRIMARY,No,No,No,No,Chinese,Malay,Tamil
WESTWOOD SECONDARY SCHOOL,http://www.westwoodsec.moe.edu.sg,11   JURONG WEST STREET 25,648350,67929737,67929738,WESTWOOD_SS@MOE.EDU.SG,JURONG WEST,WEST,GOVERNMENT SCHOOL,CO-ED SCHOOL,SINGLE SESSION,SECONDARY,No,No,No,No,Chinese,Malay,Tamil
WHITE SANDS PRIMARY SCHOOL,http://www.whitesandspri.moe.edu.sg,2    PASIR RIS ST 11,519075,69229100,65815013,wsps@moe.edu.sg,PASIR RIS,EAST,GOVERNMENT SCHOOL,CO-ED SCHOOL,SINGLE SESSION,PRIMARY,No,No,No,No,Chinese,Malay,Tamil
WHITLEY SECONDARY SCHOOL,http://www.whitleysec.moe.edu.sg,30   BISHAN STREET 24,579747,64561336,64591330,WHITLEY_SS@MOE.EDU.SG,BISHAN,SOUTH,GOVERNMENT SCHOOL,CO-ED SCHOOL,SINGLE SESSION,SECONDARY,No,No,No,No,Chinese,Malay,Tamil
WOODGROVE PRIMARY SCHOOL,http://www.woodgrovepri.moe.edu.sg/,2    WOODLANDS DRIVE 14,738079,68943371,68943372,WOODGROVE_PS@MOE.EDU.SG,WOODLANDS,NORTH,GOVERNMENT SCHOOL,CO-ED SCHOOL,SINGLE SESSION,PRIMARY,No,No,No,No,Chinese,Malay,Tamil
WOODGROVE SECONDARY SCHOOL,https://woodgrovesec.moe.edu.sg/,3    WOODLANDS AVENUE 6,738990,68932564,68934458,woodgrove_ss@moe.edu.sg,WOODLANDS,NORTH,GOVERNMENT SCHOOL,CO-ED SCHOOL,SINGLE SESSION,SECONDARY,No,No,No,No,Chinese,Malay,Tamil
WOODLANDS PRIMARY SCHOOL,http://www.woodlandspri.moe.edu.sg,10   WOODLANDS DRIVE 50,738853,62697410,63671165,wdp@moe.edu.sg,WOODLANDS,NORTH,GOVERNMENT SCHOOL,CO-ED SCHOOL,SINGLE SESSION,PRIMARY,No,No,No,No,Chinese,Malay,Tamil
WOODLANDS RING PRIMARY SCHOOL,HTTP://www.woodlandsringpri.moe.edu.sg,11   WOODLANDS RING ROAD,738240,63643679,63643490,WRPS@MOE.EDU.SG,WOODLANDS,NORTH,GOVERNMENT SCHOOL,CO-ED SCHOOL,SINGLE SESSION,PRIMARY,No,No,No,No,Chinese,Malay,Tamil
WOODLANDS RING SECONDARY SCHOOL,http://www.woodlandsringsec.moe.edu.sg,10   WOODLANDS RING ROAD,738239,63643712,63643713,wrss@moe.edu.sg,WOODLANDS,NORTH,GOVERNMENT SCHOOL,CO-ED SCHOOL,SINGLE SESSION,SECONDARY,No,No,No,No,Chinese,Malay,Tamil
WOODLANDS SECONDARY SCHOOL,http://www.woodlandssec.moe.edu.sg,11   MARSILING ROAD,739111,68494400,62691774,wdl_ss@moe.edu.sg,WOODLANDS,NORTH,GOVERNMENT SCHOOL,CO-ED SCHOOL,SINGLE SESSION,SECONDARY,No,No,No,No,Chinese,Malay,Tamil
XINGHUA PRIMARY SCHOOL,http://www.xinghuapri.moe.edu.sg,45   HOUGANG AVENUE 1,538882,62889121,62838831,XINGHUA_PS@MOE.EDU.SG,HOUGANG,SOUTH,GOVERNMENT SCHOOL,CO-ED SCHOOL,SINGLE SESSION,PRIMARY,No,No,No,No,Chinese,Malay,Tamil
XINGNAN PRIMARY SCHOOL,http://www.xingnanpri.moe.edu.sg,5    JURONG WEST STREET 91,649036,67913679,67921493,XINGNAN_PS@MOE.EDU.SG,JURONG WEST,WEST,GOVERNMENT SCHOOL,CO-ED SCHOOL,SINGLE SESSION,PRIMARY,No,No,No,No,Chinese,Malay,Tamil
XINMIN PRIMARY SCHOOL,http://www.xinminpri.moe.edu.sg/,9    HOUGANG AVENUE 8,538784,62835479,62880334,xinmin_ps@moe.edu.sg,HOUGANG,NORTH,GOVERNMENT SCHOOL,CO-ED SCHOOL,SINGLE SESSION,PRIMARY,No,No,No,No,Chinese,Malay,Tamil
XINMIN SECONDARY SCHOOL,http://www.xinminsec.moe.edu.sg,11   HOUGANG AVENUE 8,538789,62889382,63851068,xinminss_email@schools.gov.sg,HOUGANG,NORTH,GOVERNMENT SCHOOL,CO-ED SCHOOL,SINGLE SESSION,SECONDARY,No,Yes,No,No,Chinese,Malay,Tamil
XISHAN PRIMARY SCHOOL,https://www.xishanpri.moe.edu.sg/,8    YISHUN STREET 21,768611,67588837,67588361,XISHAN_PS@MOE.EDU.SG,YISHUN,NORTH,GOVERNMENT SCHOOL,CO-ED SCHOOL,SINGLE SESSION,PRIMARY,No,No,No,No,Chinese,Malay,Tamil
YANGZHENG PRIMARY SCHOOL,http://www.yangzhengpri.moe.edu.sg/,15   SERANGOON AVENUE 3,556108,62846298,62879778,YZPS@MOE.EDU.SG,SERANGOON,SOUTH,GOVERNMENT SCHOOL,CO-ED SCHOOL,SINGLE SESSION,PRIMARY,No,No,No,No,Chinese,Malay,Tamil
YEW TEE PRIMARY SCHOOL,http://www.yewteepri.moe.edu.sg,10   CHOA CHU KANG ST 64,689100,67670027,67675450,YTPS@MOE.EDU.SG,CHOA CHU KANG,WEST,GOVERNMENT SCHOOL,CO-ED SCHOOL,SINGLE SESSION,PRIMARY,No,No,No,No,Chinese,Malay,Tamil
YIO CHU KANG PRIMARY SCHOOL,http://www.yiochukangpri.moe.edu.sg,1    HOUGANG STREET 51,538720,63851365,63855915,admin_yckps@moe.edu.sg,HOUGANG,NORTH,GOVERNMENT SCHOOL,CO-ED SCHOOL,SINGLE SESSION,PRIMARY,No,No,No,No,Chinese,Malay,Tamil
YIO CHU KANG SECONDARY SCHOOL,http://www.yiochukangsec.moe.edu.sg,3063 ANG MO KIO AVENUE 5,569868,64560669,65522927,yckss@moe.edu.sg,ANG MO KIO,SOUTH,GOVERNMENT SCHOOL,CO-ED SCHOOL,SINGLE SESSION,SECONDARY,No,No,No,No,Chinese,Malay,Tamil
YISHUN INNOVA JUNIOR COLLEGE,https://yijc.moe.edu.sg/,3    YISHUN RING ROAD,768675,62579873,62574373,yijc@moe.edu.sg,YISHUN,NORTH,GOVERNMENT SCHOOL,CO-ED SCHOOL,FULL DAY,JUNIOR COLLEGE,No,No,No,No,Chinese,Malay,Tamil
YISHUN PRIMARY SCHOOL,http://www.yishunpri.moe.edu.sg,500  YISHUN RING ROAD,768679,62577461,67554198,YPS@MOE.EDU.SG,YISHUN,NORTH,GOVERNMENT SCHOOL,CO-ED SCHOOL,SINGLE SESSION,PRIMARY,No,No,No,No,Chinese,Malay,Tamil
YISHUN SECONDARY SCHOOL,http://www.yishunsec.moe.edu.sg,4    YISHUN STREET 71,768516,68767129,67557748,YISHUN_SS@MOE.EDU.SG,YISHUN,NORTH,GOVERNMENT SCHOOL,CO-ED SCHOOL,SINGLE SESSION,SECONDARY,No,No,No,No,Chinese,Malay,Tamil
YISHUN TOWN SECONDARY SCHOOL,http://www.yishuntownsec.moe.edu.sg,6    YISHUN STREET 21,768610,67587219,67559112,YTSS@MOE.EDU.SG,YISHUN,NORTH,GOVERNMENT SCHOOL,CO-ED SCHOOL,SINGLE SESSION,SECONDARY,No,Yes,No,No,Chinese,Malay,Tamil
YU NENG PRIMARY SCHOOL,http://www.ynps.moe.edu.sg/,56   BEDOK NORTH ST 3,469623,64490121,64498564,YNPS@MOE.EDU.SG,BEDOK,EAST,GOVERNMENT SCHOOL,CO-ED SCHOOL,SINGLE SESSION,PRIMARY,No,No,No,No,Chinese,Malay,na
YUAN CHING SECONDARY SCHOOL,http://www.yuanchingsec.moe.edu.sg,103  YUAN CHING ROAD,618654,62612489,62616275,YCSS@MOE.EDU.SG,JURONG WEST,WEST,GOVERNMENT SCHOOL,CO-ED SCHOOL,SINGLE SESSION,SECONDARY,No,No,No,No,Chinese,Malay,Tamil
YUHUA PRIMARY SCHOOL,http://www.yuhuapri.moe.edu.sg,158  JURONG EAST STREET 24,609558,65605062,65648278,YUHUA_PS@MOE.EDU.SG,JURONG EAST,WEST,GOVERNMENT SCHOOL,CO-ED SCHOOL,SINGLE SESSION,PRIMARY,No,No,No,No,Chinese,Malay,Tamil
YUHUA SECONDARY SCHOOL,http://www.yuhuasec.moe.edu.sg,35   JURONG WEST STREET 41,649406,65661985,65696689,YUHUA_SS@MOE.EDU.SG,JURONG WEST,WEST,GOVERNMENT SCHOOL,CO-ED SCHOOL,SINGLE SESSION,SECONDARY,No,No,No,No,Chinese,Malay,Tamil
YUMIN PRIMARY SCHOOL,http://www.yuminpri.moe.edu.sg,3    TAMPINES STREET 21,529393,67811262,67845554,YUMIN_PS@MOE.EDU.SG,TAMPINES,EAST,GOVERNMENT SCHOOL,CO-ED SCHOOL,SINGLE SESSION,PRIMARY,No,No,No,No,Chinese,Malay,na
YUSOF ISHAK SECONDARY SCHOOL,http://www.yusofishaksec.moe.edu.sg,11   BUKIT BATOK STREET 25,658712,65009800,65675502,yiss@moe.edu.sg,BUKIT BATOK,WEST,GOVERNMENT SCHOOL,CO-ED SCHOOL,SINGLE SESSION,SECONDARY,No,No,No,No,Chinese,Malay,Tamil
YUYING SECONDARY SCHOOL,http://www.yuyingsec.moe.edu.sg,47   HOUGANG AVENUE 1,538884,62827968,62871607,yuying_ss@moe.edu.sg,HOUGANG,SOUTH,GOVERNMENT-AIDED SCH,CO-ED SCHOOL,SINGLE SESSION,SECONDARY,No,No,No,No,Chinese,Malay,Tamil
ZHANGDE PRIMARY SCHOOL,http://www.zhangdepri.moe.edu.sg/,51   Jalan Membina,169485,62740357,62763042,ZHANGDE_PS@MOE.EDU.SG,BUKIT MERAH,SOUTH,GOVERNMENT SCHOOL,CO-ED SCHOOL,SINGLE SESSION,PRIMARY,No,No,No,No,Chinese,Malay,Tamil
ZHENGHUA PRIMARY SCHOOL,http://www.zhenghuapri.moe.edu.sg,9    Fajar Road,679002,67697478,67636459,zhenghua_ps@moe.edu.sg,BUKIT PANJANG,WEST,GOVERNMENT SCHOOL,CO-ED SCHOOL,SINGLE SESSION,PRIMARY,No,No,No,No,Chinese,Malay,Tamil
ZHENGHUA SECONDARY SCHOOL,http://www.zhenghuasec.moe.edu.sg,91   SENJA ROAD,677741,67639455,67633577,ZHENGHUA_SS@MOE.EDU.SG,BUKIT PANJANG,WEST,GOVERNMENT SCHOOL,CO-ED SCHOOL,SINGLE SESSION,SECONDARY,No,No,No,No,Chinese,Malay,Tamil
ZHONGHUA PRIMARY SCHOOL,http://www.zhonghuapri.moe.edu.sg,12   SERANGOON AVENUE 4,556095,62835413,62823882,zhonghua_ps@moe.edu.sg,SERANGOON,SOUTH,GOVERNMENT SCHOOL,CO-ED SCHOOL,SINGLE SESSION,PRIMARY,No,No,No,No,Chinese,Malay,Tamil
ZHONGHUA SECONDARY SCHOOL,http://www.zhonghuasec.moe.edu.sg,13   SERANGOON AVENUE 3,556123,62824339,62823472,ZHONGHUA_SS@MOE.EDU.SG,SERANGOON,SOUTH,GOVERNMENT SCHOOL,CO-ED SCHOOL,SINGLE SESSION,SECONDARY,No,Yes,No,No,Chinese,Malay,na
